{"type":"FeatureCollection","features":[{"type":"Feature","properties":{"kind":"mountain"},"geometry":{"type":"MultiPolygon","coordinates":[[[[-178.3895,-84.3375],[-160.8209,-84.9866],[-150.29,-85.544],[-135.9051,-85.6249],[-128.977,-85.3237],[-124.3295,-85.5818],[-109.3975,-84.377],[-93.6907,-84.9794],[-76.5639,-84.1619],[-70.1091,-84.248],[-66.1501,-83.8607],[-59.8243,-83.6454],[-54.6667,-82.4096],[-50.653,-81.9755],[-46.8229,-81.9928],[-46.7633,-82.4096],[-50.4937,-83.8006],[-54.0976,-83.9903],[-57.2424,-85.0225],[-61.9759,-85.1946],[-73.2934,-86.3135],[-76.1335,-86.2704],[-80.6949,-86.8727],[-85.2563,-86.5285],[-88.5268,-86.8298],[-93.3895,-86.3564],[-103.4159,-86.6146],[-109.0962,-86.0982],[-116.6699,-86.8298],[-130.3971,-87.3461],[-134.7434,-87.217],[-141.6286,-87.6474],[-150.2916,-87.0416],[-155.25,-87.0832],[-161.6667,-86.6249],[-166.125,-86.5832],[-177.1033,-85.4694],[-179.9,-85.6136],[-179.9,-84.3507],[-178.3895,-84.3375]]],[[[-87.1249,-77.3035],[-85.4821,-77.0179],[-84.1875,-77.3749],[-83.6877,-78.148],[-83.227,-78.4016],[-83.7627,-78.4611],[-83.26,-78.7742],[-81.6609,-79.0998],[-80.892,-79.5019],[-79.1359,-79.9961],[-79.6604,-79.9969],[-75.9106,-80.3749],[-75.8749,-81.1249],[-76.8392,-81.4465],[-80.1606,-81.2321],[-85.25,-79.6249],[-87.2678,-78.8393],[-87.6249,-77.8749],[-87.1249,-77.3035]]],[[[-147.3333,-77.6249],[-145.6771,-77.4881],[-145.2083,-75.9999],[-143.3333,-75.6666],[-143.7917,-77.2916],[-144.5417,-78.2083],[-148.0833,-78.9999],[-149.2083,-78.5833],[-149.2083,-78.0416],[-147.3333,-77.6249]]],[[[-131.0,-75.9583],[-131.2916,-76.4166],[-133.9166,-76.7499],[-136.25,-76.5833],[-136.5416,-76.0833],[-135.9166,-75.5416],[-135.0833,-75.2916],[-131.0,-75.0416],[-131.0,-75.9583]]],[[[-73.5962,-53.4205],[-73.0994,-53.5119],[-73.0536,-53.3944],[-72.2054,-53.8074],[-72.5629,-54.0737],[-72.861,-54.0236],[-72.7638,-53.8648],[-73.073,-53.8753],[-73.5962,-53.4205]]],[[[-73.5828,-53.3002],[-73.6363,-53.0792],[-73.4506,-53.1443],[-73.1352,-53.3539],[-73.5828,-53.3002]]],[[[-73.1787,-44.3429],[-72.7764,-44.5086],[-72.8972,-44.712],[-73.2285,-44.86],[-73.1787,-44.3429]]],[[[-77.0768,3.9133],[-77.2513,3.8871],[-76.6859,5.5706],[-76.7911,8.5561],[-76.209,8.7854],[-75.9431,8.1225],[-75.5179,7.6806],[-75.2549,7.7567],[-74.3922,8.7325],[-73.6161,9.2617],[-74.0923,10.5052],[-74.2113,11.1714],[-74.1032,11.3302],[-72.452,11.3077],[-71.6967,10.8603],[-71.6648,10.4437],[-72.1128,9.8156],[-71.6195,9.0479],[-71.2414,9.1604],[-71.0527,9.7058],[-71.543,10.7692],[-69.7532,11.4489],[-69.1534,11.4665],[-68.4689,11.2089],[-68.3303,10.6375],[-68.1399,10.4927],[-66.2472,10.6322],[-65.8518,10.2578],[-65.1291,10.0701],[-63.7319,10.5034],[-64.2453,10.6338],[-61.9328,10.678],[-62.9136,10.5315],[-62.8211,10.0906],[-63.8442,9.7908],[-65.3611,9.9849],[-67.7953,9.5527],[-68.7826,9.7699],[-69.2769,9.4733],[-71.8434,7.3037],[-71.7287,6.2101],[-72.4872,5.1694],[-73.5632,4.0758],[-73.7043,2.3296],[-76.6853,0.6362],[-77.479,-1.3217],[-77.3202,-4.5496],[-75.5211,-6.2958],[-75.318,-9.0378],[-74.6479,-8.9417],[-74.0232,-10.4395],[-73.1927,-11.27],[-71.129,-12.4341],[-67.954,-13.863],[-65.2104,-16.9776],[-63.5884,-17.5142],[-63.2822,-18.4415],[-63.0857,-20.16],[-64.3028,-25.0284],[-64.5674,-25.9809],[-65.5727,-27.3038],[-65.0965,-28.3621],[-66.6311,-29.4205],[-67.5836,-31.7487],[-68.589,-32.5425],[-69.3827,-35.5058],[-69.1711,-35.9821],[-68.6948,-36.0879],[-70.8115,-41.6971],[-71.0761,-42.9671],[-70.7057,-44.5546],[-70.9703,-45.7717],[-72.3461,-49.6346],[-71.9757,-52.0688],[-70.8085,-52.8054],[-70.9959,-53.7793],[-71.2978,-53.8834],[-72.1744,-53.6323],[-72.4129,-53.3502],[-71.9417,-53.2341],[-71.8917,-53.5235],[-71.7915,-53.4846],[-71.7405,-53.2326],[-71.289,-53.0337],[-71.2271,-52.8106],[-72.278,-53.1323],[-72.5489,-53.4607],[-73.0527,-53.2435],[-72.7277,-52.7623],[-71.5113,-52.6054],[-72.7121,-52.5355],[-73.1225,-53.0739],[-73.6452,-52.837],[-73.0732,-52.5351],[-73.6849,-52.6665],[-73.6843,-52.0777],[-73.2604,-52.1578],[-72.7354,-51.9605],[-72.5708,-52.2001],[-72.6771,-52.3847],[-72.5233,-52.2555],[-72.6246,-51.9465],[-72.4896,-51.7637],[-73.1268,-51.4399],[-72.6,-51.7991],[-73.3833,-52.07],[-73.8538,-51.7908],[-73.8959,-51.3314],[-74.0958,-51.2053],[-74.3119,-50.5897],[-73.8475,-50.94],[-73.614,-50.6279],[-73.6799,-50.4902],[-73.978,-50.8271],[-74.1972,-50.6098],[-74.1856,-50.4854],[-73.9503,-50.5105],[-74.3253,-50.388],[-74.3515,-49.9906],[-73.9586,-49.9947],[-74.3239,-49.7834],[-74.2908,-49.6041],[-73.8364,-49.6094],[-74.0944,-49.4297],[-73.935,-49.0209],[-74.2213,-49.5006],[-74.3666,-49.4005],[-74.341,-48.5957],[-74.0091,-48.475],[-74.4022,-48.4797],[-74.3966,-48.0139],[-73.3845,-48.1773],[-73.7159,-47.6555],[-73.9409,-47.9294],[-74.2271,-47.9689],[-74.3923,-47.6523],[-74.1341,-47.5908],[-74.3609,-47.5078],[-74.1584,-47.1825],[-74.2171,-46.8466],[-73.7081,-46.0265],[-73.9437,-46.5716],[-73.7162,-46.4152],[-73.4802,-45.4427],[-73.2662,-45.3462],[-72.9338,-45.4523],[-73.4246,-45.2398],[-73.3524,-44.9766],[-72.6801,-44.5939],[-72.6639,-44.4364],[-73.1487,-44.2332],[-72.6599,-42.2076],[-72.4124,-42.3882],[-72.6611,-41.7433],[-72.3604,-41.6491],[-72.3183,-41.499],[-72.6613,-41.6624],[-72.6636,-40.7446],[-71.9228,-37.993],[-71.4465,-34.7651],[-71.6504,-33.0326],[-71.4213,-32.3868],[-71.6764,-30.3826],[-71.4004,-30.143],[-71.39,-29.3083],[-70.4595,-25.9575],[-70.5438,-24.3182],[-70.3923,-23.5659],[-70.5934,-23.2555],[-70.3317,-22.8486],[-70.0875,-21.4931],[-70.1574,-19.7059],[-70.3154,-18.4394],[-71.4359,-17.366],[-72.4677,-16.7081],[-73.9855,-16.033],[-75.9668,-14.5709],[-76.236,-14.1767],[-76.2236,-13.3712],[-77.0816,-12.0971],[-78.7623,-8.617],[-79.1732,-8.0398],[-80.019,-5.8725],[-80.2307,-4.6025],[-79.9661,-3.403],[-80.059,-3.2483],[-79.7299,-2.5791],[-79.8421,-2.0674],[-79.9256,-2.5485],[-80.0066,-2.3538],[-80.2847,-2.7067],[-80.4283,-2.6388],[-80.6011,-1.8509],[-80.2307,-0.3162],[-78.3257,1.3771],[-77.0768,3.9133]]],[[[-80.0934,-2.8459],[-80.202,-3.0099],[-80.2237,-2.7531],[-79.9973,-2.6738],[-80.0934,-2.8459]]],[[[-91.0023,15.7946],[-91.2598,15.2857],[-91.9513,14.9623],[-92.1193,15.1456],[-92.5013,15.195],[-94.7567,16.7881],[-94.2524,17.5178],[-93.909,17.6715],[-92.2474,17.7508],[-91.4805,17.3953],[-90.9192,16.83],[-91.0023,15.7946]]],[[[-101.6739,20.2205],[-101.215,20.5944],[-100.7696,20.1059],[-100.4472,19.9244],[-100.0847,20.0634],[-99.7001,19.5057],[-98.7168,18.9825],[-97.5356,19.1718],[-97.2004,19.4893],[-97.0064,20.1066],[-96.7396,20.2202],[-96.407,19.7004],[-96.7771,19.207],[-96.7853,18.5645],[-95.7535,17.538],[-95.076,17.4427],[-95.2002,16.1605],[-96.2528,15.6911],[-97.6857,15.978],[-98.7377,16.5654],[-99.6538,16.7259],[-100.9208,17.2672],[-101.8352,17.9481],[-103.4609,18.368],[-103.7798,18.8013],[-104.9948,19.4307],[-105.5947,20.4016],[-104.959,20.9255],[-105.5108,20.8087],[-105.2371,21.1192],[-105.1818,22.0075],[-105.5719,22.7355],[-106.2657,23.311],[-107.2446,24.7662],[-109.5726,27.2529],[-110.7107,29.4758],[-110.7636,30.6929],[-110.5784,31.1427],[-108.784,31.0856],[-108.1442,30.4283],[-107.7209,29.37],[-107.7738,28.9467],[-107.2281,28.0106],[-106.781,27.3637],[-105.9776,26.6742],[-104.3262,23.9272],[-103.4611,23.4433],[-103.1965,22.9406],[-102.6144,22.8348],[-102.2223,22.3756],[-102.2969,21.8823],[-103.0531,21.0527],[-104.6715,20.9126],[-103.0341,20.2129],[-101.9086,20.3593],[-101.6739,20.2205]]],[[[-100.5713,23.9049],[-100.683,24.3958],[-101.3303,24.8862],[-102.254,25.1749],[-103.2806,26.2967],[-103.4082,26.6977],[-103.1881,28.9916],[-102.6987,29.711],[-102.3755,29.8495],[-101.3343,29.7288],[-101.1592,27.9412],[-99.2807,24.7398],[-98.5663,21.6706],[-98.2641,21.2115],[-97.7726,20.9298],[-98.1371,20.2008],[-98.5928,20.1625],[-99.4917,20.6664],[-99.8099,21.2208],[-100.095,23.2434],[-100.5713,23.9049]]],[[[-119.6007,35.3623],[-119.1346,35.0674],[-119.8564,34.7857],[-120.6094,34.708],[-120.6458,35.1379],[-121.8671,36.3225],[-121.8232,36.9503],[-122.3636,37.1782],[-122.475,37.7869],[-122.0705,37.4783],[-122.3854,37.9606],[-121.7797,38.0051],[-121.5224,37.8961],[-119.6007,35.3623]]],[[[-120.8713,38.1104],[-122.3215,41.2453],[-122.5904,43.2606],[-123.039,44.1802],[-122.4582,45.1921],[-122.4582,45.5203],[-122.6406,45.725],[-122.6361,45.4616],[-122.974,45.2429],[-123.3313,43.2341],[-123.2255,42.8373],[-122.3788,41.5408],[-122.3841,41.0545],[-122.7492,40.5354],[-122.7228,40.0591],[-122.416,39.2839],[-122.0613,38.8421],[-121.99,38.1183],[-122.4839,38.1088],[-122.5149,37.8278],[-122.9418,38.066],[-123.0403,38.3923],[-123.6748,39.0018],[-123.9288,39.949],[-124.329,40.2701],[-124.0598,41.4305],[-124.482,42.7335],[-124.1487,43.6917],[-123.9399,45.1921],[-123.9893,46.2194],[-123.2206,46.1536],[-124.0319,46.2871],[-124.0443,46.6051],[-123.9461,46.4326],[-123.8892,46.66],[-124.1125,46.8627],[-123.8429,46.9632],[-124.1393,46.9547],[-124.6834,48.2487],[-122.8727,48.051],[-122.8626,47.7498],[-123.1391,47.3861],[-122.9222,47.4077],[-123.0668,47.3997],[-122.8759,47.6265],[-122.8805,47.3098],[-123.0276,47.1389],[-122.8325,47.1431],[-122.758,46.6622],[-122.2729,47.0706],[-122.0348,47.8644],[-122.5451,48.7623],[-123.0815,49.1303],[-123.145,49.2824],[-122.9477,49.2933],[-122.8791,49.3989],[-123.1723,49.3479],[-123.1875,49.6803],[-123.543,49.5313],[-123.7091,49.6088],[-123.5825,49.6812],[-123.818,49.6852],[-123.9042,49.9812],[-123.7847,50.088],[-123.8801,50.1736],[-124.1078,49.8176],[-125.044,50.3653],[-124.8599,50.8724],[-125.2022,50.4782],[-126.5173,51.0568],[-127.3578,51.0613],[-127.559,51.4899],[-126.6915,51.7034],[-127.3387,51.7074],[-127.5676,51.57],[-127.5492,51.9544],[-127.7755,52.2011],[-127.2422,52.3951],[-126.714,52.0607],[-127.2083,52.4982],[-126.9952,52.6579],[-126.9664,52.7847],[-127.8271,52.2575],[-128.0451,52.4613],[-127.9434,52.5507],[-128.2089,52.5942],[-128.0533,52.9107],[-128.365,52.8258],[-128.5247,53.1407],[-129.1716,53.5336],[-128.8546,53.7045],[-128.9056,53.5593],[-127.9278,53.2747],[-128.6755,53.5546],[-128.7637,53.7469],[-128.5321,53.8581],[-128.9594,53.8415],[-129.3373,53.4471],[-129.9393,53.8315],[-129.9775,54.1419],[-129.626,54.2303],[-129.928,54.2192],[-129.7872,54.3731],[-130.1854,54.77],[-129.5606,55.4625],[-129.7952,55.5596],[-130.0485,55.0573],[-129.9852,55.3588],[-130.0947,55.6948],[-130.0251,55.8882],[-130.1465,55.6545],[-130.0366,55.2979],[-130.2039,54.947],[-130.3417,54.8216],[-130.7287,54.9494],[-130.7482,55.318],[-131.1404,55.9975],[-131.0328,56.0881],[-131.9539,55.994],[-131.5514,56.2068],[-131.8128,56.2272],[-133.3481,57.3265],[-133.5082,57.6812],[-133.117,57.5662],[-133.5364,57.8639],[-133.1943,57.8777],[-133.7823,57.9579],[-134.0604,58.2236],[-133.8768,58.5182],[-134.1653,58.259],[-134.814,58.5258],[-135.3489,59.4101],[-135.4788,59.3094],[-136.2056,59.6389],[-136.8251,60.4056],[-136.4017,60.8025],[-135.7667,60.9083],[-135.1678,60.854],[-134.4928,60.5571],[-134.2927,60.4034],[-134.0029,59.6125],[-133.8417,59.6383],[-133.3061,59.0827],[-130.6338,57.5217],[-129.7078,56.6485],[-129.2051,55.8019],[-127.8017,55.405],[-127.1413,53.6058],[-124.8394,51.7537],[-122.2729,50.907],[-121.5877,50.2415],[-121.409,50.3166],[-121.2538,50.7497],[-119.9382,50.6608],[-119.2898,50.976],[-119.5742,51.5685],[-120.024,52.0447],[-120.4738,52.0977],[-121.1352,52.4681],[-121.6644,52.9179],[-121.8761,53.4471],[-122.4053,54.0291],[-123.7282,55.0346],[-123.8731,55.5637],[-123.6743,55.7521],[-125.8713,57.6168],[-126.8882,58.6888],[-127.1942,59.215],[-126.5708,59.5779],[-128.1908,59.8147],[-129.0713,60.2129],[-129.4704,61.0649],[-130.6073,61.6227],[-133.0301,62.1588],[-133.3855,63.0779],[-133.6157,63.2406],[-134.0469,63.2366],[-134.2057,63.3425],[-134.1395,63.5725],[-136.9309,63.5541],[-137.3542,63.7129],[-137.0897,65.0358],[-136.1579,65.6708],[-135.1846,65.6179],[-133.4737,65.9465],[-128.7787,65.7009],[-127.9698,65.5936],[-125.0547,64.7195],[-123.2489,62.9945],[-123.1556,62.1985],[-123.4598,60.5767],[-124.1543,59.6268],[-124.5652,59.7106],[-123.3265,59.0875],[-121.7543,57.8726],[-121.536,56.6182],[-119.2303,54.6906],[-116.9284,52.9973],[-115.923,52.7195],[-115.1557,52.1638],[-115.0491,51.3444],[-113.7005,49.7958],[-112.232,47.5071],[-111.2174,47.445],[-110.1022,47.1235],[-109.6216,46.1224],[-107.7738,45.7742],[-106.6626,44.7687],[-106.1069,43.8427],[-105.1015,42.705],[-104.8898,41.5938],[-104.4665,40.5883],[-104.356,38.3874],[-104.1225,37.3604],[-104.1225,36.4344],[-104.5988,35.7729],[-105.1544,35.4342],[-106.5929,35.2991],[-107.0065,35.7994],[-107.0483,37.0015],[-108.1549,37.1116],[-108.4404,37.3972],[-108.303,37.917],[-107.5886,38.3658],[-107.5092,38.9215],[-108.2365,38.8814],[-108.9644,39.2654],[-110.2995,39.0152],[-111.7955,37.7308],[-112.7744,37.3604],[-113.2772,37.625],[-111.6899,39.4241],[-111.6367,40.5354],[-112.1504,41.4755],[-112.5239,41.9409],[-113.2507,42.3875],[-115.2527,43.1548],[-116.267,43.8162],[-116.2927,45.6797],[-117.0391,46.7531],[-117.2222,47.5232],[-116.9107,47.7941],[-118.5715,47.9265],[-119.1625,48.1337],[-119.7787,48.0801],[-120.1563,47.785],[-120.6061,47.0441],[-121.316,44.9807],[-121.7703,42.6256],[-121.6644,42.1758],[-121.3469,41.7525],[-121.2792,41.0441],[-119.9376,39.0936],[-118.8863,38.0219],[-118.1455,36.8312],[-117.8809,35.9316],[-117.9338,35.4819],[-118.5953,34.8733],[-118.8418,34.9947],[-118.8547,36.0963],[-120.8713,38.1104]],[[-121.0823,40.4031],[-121.294,40.3502],[-121.5586,40.2708],[-121.0823,40.4031]],[[-125.033,59.275],[-124.7388,59.549],[-125.0282,59.3696],[-125.3586,59.3453],[-125.033,59.275]],[[-119.4419,50.0075],[-119.3782,50.3475],[-119.4385,50.0825],[-119.6888,49.736],[-119.4419,50.0075]],[[-119.6007,48.7375],[-119.6977,49.6328],[-119.6847,48.4729],[-119.7153,48.3369],[-119.6007,48.7375]],[[-116.5184,48.286],[-116.5081,48.3052],[-116.5135,48.3084],[-116.5184,48.286]],[[-122.6024,55.0592],[-122.7602,55.237],[-123.181,55.4741],[-122.6024,55.0592]]],[[[-66.7044,48.0225],[-65.7619,47.8632],[-65.6465,47.632],[-65.9697,47.0971],[-66.8163,46.3563],[-68.642,45.9594],[-71.1554,43.1812],[-71.6053,42.2023],[-73.1134,41.3556],[-73.8741,41.0789],[-73.9699,41.2497],[-73.9125,41.0496],[-75.3287,40.2014],[-76.1886,40.0847],[-76.7646,39.7042],[-79.2378,36.9386],[-80.3281,35.9813],[-83.8915,33.8804],[-85.8859,33.0029],[-86.5615,32.9463],[-86.8805,32.6508],[-88.0159,32.6058],[-88.5411,33.97],[-88.2674,34.6711],[-88.2585,35.2593],[-87.9892,35.7819],[-88.0992,36.6964],[-88.24,36.9542],[-88.5221,37.0598],[-88.5081,37.3438],[-88.141,37.4672],[-88.1326,37.7005],[-87.4479,37.9435],[-87.087,37.8066],[-86.8191,37.9963],[-86.5959,37.9055],[-86.3412,38.1556],[-86.0403,37.9699],[-85.4291,38.5397],[-85.4529,38.7055],[-84.8201,38.8293],[-84.8431,39.0892],[-84.3644,39.048],[-83.651,38.6372],[-82.8985,38.7528],[-82.5689,38.4038],[-82.4247,38.4341],[-82.0132,39.0176],[-81.8487,38.9146],[-81.6625,39.2767],[-80.8808,39.6209],[-80.6004,40.3194],[-80.6485,40.6204],[-80.2858,40.7004],[-79.9847,40.4578],[-79.5317,40.7926],[-79.7651,41.4141],[-80.1116,41.8054],[-80.1913,42.3545],[-78.9177,42.9017],[-79.1822,43.4678],[-78.6636,43.6372],[-76.8063,43.6319],[-76.3014,43.2325],[-75.4418,43.2446],[-73.7054,42.7951],[-73.4309,43.4105],[-73.2938,44.405],[-73.3282,45.0803],[-73.6096,45.1384],[-73.1068,45.5205],[-72.4606,45.662],[-71.0922,46.5369],[-69.1513,48.1577],[-67.9286,48.7158],[-66.1158,49.2158],[-64.8363,49.1917],[-64.2162,48.8736],[-64.5137,48.8411],[-64.2461,48.6911],[-64.3488,48.4232],[-65.1588,48.0622],[-66.0125,48.1467],[-66.7044,48.0225]]],[[[-122.8768,47.1861],[-122.9119,47.2543],[-122.8851,47.2747],[-122.8768,47.1861]]],[[[-123.9228,49.7175],[-123.9077,49.7014],[-123.9727,49.7362],[-123.9228,49.7175]]],[[[-128.2729,52.6461],[-128.3962,52.7462],[-128.3649,52.7819],[-128.2729,52.6461]]],[[[-128.6327,53.1125],[-128.5416,52.8641],[-128.8262,53.2152],[-128.6327,53.1125]]],[[[-145.1292,60.3289],[-145.2666,60.3441],[-145.1281,60.4011],[-145.1292,60.3289]]],[[[-148.351,60.726],[-148.2679,60.6997],[-148.2616,60.6859],[-148.351,60.726]]],[[[-147.9644,60.9001],[-147.9307,60.8262],[-148.1154,60.8306],[-147.9644,60.9001]]],[[[-140.688,60.7496],[-140.8732,60.4321],[-141.477,60.0105],[-144.0426,60.0291],[-144.9013,60.3352],[-144.6911,60.6691],[-145.3818,60.3886],[-145.8173,60.5211],[-145.6749,60.6511],[-146.1373,60.6605],[-146.6383,60.9029],[-146.5991,61.0535],[-146.2849,61.1126],[-146.3844,61.1358],[-147.8911,60.8899],[-148.0051,60.9686],[-147.7738,61.2178],[-148.3888,61.037],[-148.2087,61.0299],[-148.5566,60.8182],[-149.9064,61.1008],[-149.7611,61.3487],[-148.4402,61.8873],[-147.0115,61.7285],[-145.9267,61.9666],[-140.9999,60.9301],[-140.688,60.7496]]],[[[-142.5776,63.2392],[-143.6542,62.7105],[-144.3657,62.7075],[-145.3804,62.269],[-147.6995,62.7869],[-149.6044,62.8663],[-150.0872,62.5872],[-150.1561,61.8633],[-150.5821,61.3574],[-151.7639,60.8776],[-151.8563,61.2258],[-152.2502,61.3052],[-153.7848,61.1993],[-154.0213,60.9869],[-154.5845,61.2052],[-154.4728,61.6227],[-154.605,62.0989],[-154.4463,62.4164],[-151.6399,63.366],[-150.3345,64.0584],[-149.1547,64.3479],[-147.3025,64.2156],[-146.8606,64.3271],[-145.0626,64.0742],[-144.5415,63.7263],[-142.5776,63.2392]]],[[[-162.0176,66.7841],[-162.0115,66.6374],[-162.6074,66.8944],[-162.0176,66.7841]]],[[[-151.5624,67.126],[-152.8588,66.8615],[-154.5126,66.9585],[-155.3412,66.7755],[-158.6106,67.2039],[-161.8638,66.7338],[-161.6222,66.9793],[-163.5318,67.1026],[-164.1252,67.6067],[-166.7863,68.3596],[-166.3805,68.4251],[-166.2091,68.8854],[-164.3023,68.9365],[-163.5357,69.1701],[-163.1615,69.3879],[-162.9521,69.7581],[-161.881,70.3317],[-161.7611,70.2577],[-162.0739,70.162],[-160.1171,70.5912],[-159.9631,70.5682],[-160.0951,70.3333],[-159.8657,70.2789],[-159.815,70.4971],[-159.3868,70.5245],[-160.0816,70.6349],[-159.6809,70.7868],[-157.9094,70.8601],[-156.4702,71.4077],[-156.5672,71.3416],[-155.5794,71.1211],[-156.1466,70.9278],[-155.9735,70.842],[-155.1668,71.0992],[-154.1952,70.8011],[-153.2329,70.9326],[-152.3004,70.8468],[-152.4706,70.6536],[-151.769,70.5602],[-151.9447,70.4521],[-149.2694,70.5008],[-147.7054,70.2172],[-144.6192,69.9821],[-143.2183,70.1163],[-141.4079,69.6534],[-139.1815,69.5155],[-137.2426,68.9629],[-138.0157,68.3961],[-141.9051,67.9992],[-142.9899,67.6552],[-144.2863,67.6287],[-147.329,67.126],[-148.7048,67.2848],[-151.5624,67.126]]],[[[-138.9315,69.6169],[-138.8789,69.5897],[-139.2914,69.5979],[-138.9315,69.6169]]],[[[-24.5293,-80.9875],[-29.965,-81.0649],[-30.4544,-80.6784],[-29.1149,-80.2147],[-21.2835,-79.9313],[-18.5271,-80.3436],[-18.2952,-80.9102],[-20.8825,-81.2184],[-24.5293,-80.9875]]],[[[-68.5407,-55.1808],[-68.3817,-55.1916],[-68.3045,-55.2387],[-68.5407,-55.1808]]],[[[-68.07,-55.2211],[-68.3014,-54.9807],[-67.2453,-54.9776],[-67.0855,-55.1152],[-67.1726,-55.2426],[-68.07,-55.2211]]],[[[-69.5122,-54.9425],[-68.458,-54.9597],[-68.5999,-55.1663],[-69.5122,-54.9425]]],[[[-66.5111,-55.0321],[-68.2201,-54.8176],[-69.0816,-54.9099],[-71.465,-54.4301],[-70.7973,-54.3272],[-70.7011,-54.4854],[-70.311,-54.5285],[-70.8631,-54.1104],[-70.8677,-53.8842],[-70.5313,-53.6273],[-70.3797,-53.9867],[-70.6298,-54.0056],[-70.2434,-54.3477],[-69.7418,-54.3059],[-69.3121,-54.5715],[-69.0452,-54.4284],[-70.0856,-54.0111],[-70.1488,-53.7611],[-69.7944,-53.6293],[-69.4357,-53.9208],[-66.6311,-54.3971],[-65.3492,-54.8244],[-66.5111,-55.0321]]],[[[-71.0219,-54.1118],[-71.0049,-54.2467],[-71.1433,-54.374],[-71.4733,-54.2312],[-71.9243,-54.2964],[-72.2104,-54.0478],[-71.9965,-53.8849],[-71.0219,-54.1118]]],[[[-70.3293,-53.3776],[-70.4472,-53.0989],[-70.0644,-53.41],[-70.3293,-53.3776]]],[[[-47.4047,-23.5114],[-46.4521,-22.5942],[-45.1822,-21.7828],[-43.2948,-21.0596],[-41.2311,-21.3771],[-41.4957,-21.9063],[-42.5717,-22.5589],[-44.6373,-23.0555],[-44.6721,-23.2074],[-45.4292,-23.582],[-46.5934,-23.8995],[-47.5811,-24.6403],[-47.9342,-24.6403],[-47.7284,-24.6992],[-48.1869,-25.3114],[-48.4025,-25.2721],[-48.4761,-25.443],[-48.7317,-25.3687],[-48.4012,-25.5974],[-48.6658,-25.8443],[-48.6194,-26.1794],[-48.7483,-26.2687],[-48.5541,-27.196],[-48.6546,-28.2214],[-48.7976,-28.4588],[-49.5919,-28.8383],[-50.0729,-29.8937],[-50.2798,-29.7643],[-50.2388,-28.9636],[-50.3592,-29.738],[-51.8874,-29.506],[-52.6294,-29.7822],[-53.5266,-29.8166],[-54.1133,-29.4025],[-53.009,-28.5225],[-53.5438,-27.9704],[-53.6646,-27.4872],[-52.9917,-27.0213],[-53.0434,-26.2621],[-53.5438,-25.8135],[-53.9235,-24.6574],[-53.4575,-23.743],[-52.8882,-23.1735],[-51.9737,-23.1909],[-51.3008,-23.6049],[-50.1965,-23.1735],[-49.7133,-24.0535],[-49.1686,-24.1552],[-49.3802,-24.3404],[-49.7703,-25.1093],[-48.7758,-24.6403],[-49.345,-24.6403],[-49.3097,-24.3228],[-47.4047,-23.5114]],[[-50.174,-28.5473],[-50.1943,-28.6775],[-49.9748,-28.3082],[-50.174,-28.5473]],[[-49.637,-27.685],[-49.8101,-28.0311],[-49.6155,-27.7037],[-49.637,-27.685]],[[-49.9094,-26.5364],[-49.9112,-26.5404],[-49.5655,-26.3777],[-49.9094,-26.5364]],[[-49.2215,-25.4517],[-49.8141,-25.1957],[-49.3538,-25.3987],[-49.5655,-26.3777],[-49.2215,-25.4517]]],[[[-48.6658,-26.2896],[-48.557,-26.1866],[-48.5975,-26.3132],[-48.6031,-26.4138],[-48.6658,-26.2896]]],[[[13.2863,-4.457],[13.6567,-4.973],[13.8419,-5.6211],[13.6171,-6.0445],[13.8551,-6.6663],[14.4373,-7.0102],[14.9929,-7.6849],[15.231,-8.7962],[14.7813,-9.0211],[14.3314,-8.6904],[13.4054,-7.1425],[13.0614,-5.4625],[12.7042,-4.8803],[10.3627,-2.5784],[10.0848,-1.3349],[10.7463,-0.7529],[10.5479,0.1732],[10.1113,0.795],[10.0848,1.1257],[10.2304,1.2183],[11.1035,0.6098],[11.2622,0.0277],[12.2941,-0.3824],[12.5057,-0.7925],[12.5454,-1.2291],[13.7891,-3.6898],[13.7758,-3.9411],[13.3657,-4.0073],[12.4793,-3.3325],[12.1882,-3.3325],[12.1751,-3.6633],[12.6513,-4.1924],[13.2863,-4.457]]],[[[-58.3761,4.7461],[-58.4819,4.3228],[-58.6936,4.1464],[-59.6461,3.7936],[-60.4574,3.97],[-61.1277,3.7936],[-62.045,3.2292],[-63.4914,3.5114],[-64.6202,2.7353],[-65.3897,3.1151],[-66.3716,3.2092],[-66.8962,3.8818],[-67.6091,4.218],[-67.7974,5.173],[-67.0306,7.1099],[-66.4523,7.5673],[-65.7394,7.8497],[-64.3028,7.4272],[-63.7031,7.0392],[-61.6922,6.7922],[-60.0341,7.1097],[-59.6461,6.5806],[-58.8347,6.2278],[-58.5172,5.7339],[-58.3761,4.7461]]],[[[8.0961,18.769],[7.6815,18.9896],[7.311,19.5893],[8.1577,20.3037],[8.7487,20.3301],[8.8104,19.5187],[9.5336,19.0689],[9.8511,18.5486],[9.6571,18.2047],[9.2603,17.993],[9.6836,17.7901],[8.634,17.2609],[8.2636,17.7284],[8.3871,18.1164],[8.0961,18.769]]],[[[18.3798,19.4923],[17.4097,19.845],[17.0657,20.3742],[16.1397,20.092],[16.2278,20.7094],[15.9456,21.1945],[15.681,22.2263],[15.7957,22.3145],[16.2102,22.0059],[17.1627,22.0235],[17.5596,22.6144],[18.3269,22.7202],[18.3092,23.2141],[18.6091,23.805],[19.0324,24.0872],[19.3853,24.0696],[19.7644,23.999],[19.8526,23.4787],[19.3764,20.8417],[19.4205,20.2331],[19.3147,19.8715],[18.8825,19.5187],[18.3798,19.4923]]],[[[6.2263,25.2293],[6.6495,24.7178],[7.1082,24.5325],[8.7488,24.3429],[8.8678,24.1489],[8.5017,24.0917],[8.5989,23.8535],[8.4313,23.4919],[8.9251,23.4567],[8.59,22.9628],[8.59,22.707],[7.9638,22.2307],[7.5493,22.6805],[7.1701,22.3807],[7.1172,22.072],[6.5967,21.6662],[6.2351,21.9264],[5.8823,21.9219],[5.8912,22.3101],[5.3621,22.3189],[4.5639,22.6495],[4.4315,23.3992],[4.6829,23.796],[4.2509,24.2328],[2.5311,24.1887],[1.6668,24.3739],[1.067,24.8502],[1.9578,25.1147],[2.0813,24.806],[2.4076,24.7795],[2.637,25.5557],[2.7515,25.2382],[3.1572,25.4234],[3.219,26.129],[3.4924,26.4553],[3.563,26.9668],[3.8363,26.7993],[4.802,26.9623],[5.212,25.5468],[5.742,25.2452],[6.2263,25.2293]]],[[[6.5261,34.9262],[4.6874,34.6484],[0.4209,32.9022],[-0.3927,32.4855],[-0.9086,32.0026],[-1.7156,31.6586],[-4.0307,31.1427],[-5.4065,30.1373],[-6.4648,29.9521],[-7.629,29.1318],[-8.5021,28.7879],[-10.0632,28.3381],[-10.5394,28.3117],[-10.9892,28.5497],[-10.8915,28.8187],[-8.5683,30.6929],[-9.6266,30.5341],[-9.8647,30.7458],[-9.8134,31.3564],[-9.4679,31.9365],[-8.9122,32.3466],[-7.2718,33.1006],[-7.1792,33.6033],[-6.8088,34.0399],[-6.2797,34.0928],[-5.605,34.4103],[-5.9489,34.9395],[-5.8822,35.7931],[-5.3933,35.9052],[-5.142,35.4686],[-4.6283,35.2064],[-3.3947,35.2118],[-3.0039,35.3758],[-2.8399,35.1278],[-1.9133,35.0942],[-0.9175,35.6684],[-0.0482,35.8328],[0.307,36.1591],[1.2572,36.5196],[2.5934,36.6007],[3.779,36.8962],[4.7581,36.8963],[5.2954,36.6482],[6.338,37.0486],[6.9275,36.9194],[7.5506,37.0191],[7.9104,36.8563],[9.6747,37.3075],[9.8303,37.1354],[10.0848,37.2413],[10.442,36.6857],[10.4685,36.3286],[9.9658,35.8787],[9.9922,34.1589],[8.8334,34.114],[6.5261,34.9262]]],[[[-4.5301,37.4345],[-3.4001,37.8839],[-2.7569,37.8976],[-2.1191,37.7309],[-1.9709,37.5512],[-2.1522,37.0225],[-2.8272,36.8568],[-4.6781,37.0613],[-4.5301,37.4345]]],[[[-2.5313,38.3646],[-2.7975,38.2043],[-4.3199,38.1467],[-6.7596,37.375],[-7.2063,37.4567],[-6.7806,38.035],[-5.8497,38.4005],[-5.355,38.4111],[-4.8739,38.6993],[-3.9226,38.8366],[-2.5002,38.5974],[-2.5313,38.3646]]],[[[14.6621,41.0117],[13.1106,41.6475],[12.7687,42.0722],[12.4879,42.9141],[11.9788,43.4867],[11.2022,43.9171],[9.344,44.3983],[9.005,44.6575],[8.9603,44.9407],[9.5094,45.0201],[12.8587,43.7503],[13.4965,43.0661],[13.8389,42.3718],[15.4194,41.3341],[16.1972,40.3582],[15.9844,39.9005],[14.6621,41.0117]]],[[[3.0101,41.955],[1.3126,42.1448],[-1.163,42.6275],[-1.9457,42.9841],[-2.359,42.7723],[-6.4014,42.6816],[-7.0681,42.7598],[-7.4115,43.0134],[-6.9478,43.3567],[-2.2783,43.2684],[-1.3912,43.4728],[2.8489,42.7937],[3.1257,42.497],[3.0101,41.955]]],[[[16.7739,43.3589],[16.8344,43.3508],[16.8779,43.3019],[16.7739,43.3589]]],[[[21.3767,43.8113],[21.6111,42.9526],[21.1736,42.5906],[20.5397,42.7249],[19.6559,42.071],[19.553,41.8029],[16.9031,43.3924],[16.0254,43.5239],[15.41,44.0515],[15.471,44.272],[14.9199,44.6857],[14.8546,45.081],[13.9572,45.4317],[13.5957,45.9941],[14.1556,46.202],[16.5642,45.1639],[19.5076,44.7632],[20.5541,44.4804],[21.3767,43.8113]]],[[[14.7709,45.026],[14.8103,44.9771],[14.7789,44.9716],[14.7709,45.026]]],[[[11.6028,45.864],[11.2129,45.5621],[9.3219,45.9152],[8.3152,45.8074],[7.4683,45.1949],[7.5103,44.0794],[6.778,43.7248],[5.7241,43.7643],[5.1727,44.3085],[5.2571,45.0615],[5.7903,45.7943],[6.8698,46.6801],[8.5774,47.4564],[11.668,48.0144],[15.8263,48.1549],[16.1835,47.9614],[16.0123,47.5595],[15.3264,47.1279],[15.3148,46.4316],[14.9011,46.3059],[13.7157,46.4072],[11.6028,45.864]]],[[[25.8364,48.2503],[26.3727,47.8514],[27.0549,46.8007],[27.1533,45.7456],[26.9912,45.4398],[26.3633,45.1032],[22.3687,44.6165],[21.7238,44.8463],[21.5792,45.376],[21.6351,46.0444],[22.1295,47.2054],[23.3128,47.8675],[23.2511,48.3246],[22.6694,48.6331],[21.9656,48.7083],[21.2509,48.232],[19.8545,47.9473],[18.3495,48.3923],[17.7297,48.7648],[17.4834,49.1206],[17.594,49.5456],[18.2766,49.9246],[19.3097,50.0672],[21.6964,49.9879],[22.9581,49.6787],[24.4336,48.8068],[25.8364,48.2503]]],[[[-63.5399,59.3329],[-63.4151,59.1944],[-63.941,59.0274],[-63.2929,59.076],[-63.2821,58.8674],[-63.0084,58.8554],[-62.9297,58.6415],[-64.0321,58.5224],[-64.3019,58.8823],[-64.757,58.9299],[-64.8152,59.041],[-64.4727,59.1589],[-64.5242,59.496],[-64.757,59.4749],[-64.778,59.9639],[-64.288,60.0641],[-64.2263,59.7412],[-63.9787,59.7537],[-63.7727,59.498],[-63.9707,59.4091],[-63.5399,59.3329]]],[[[-64.7333,60.0281],[-64.8643,60.2976],[-64.7059,60.3361],[-64.4363,60.2281],[-64.7333,60.0281]]],[[[-64.66,60.4857],[-64.4444,60.2984],[-64.7379,60.3756],[-64.8235,60.4326],[-64.66,60.4857]]],[[[5.8904,59.0987],[5.9519,59.2991],[6.4153,59.5471],[5.8184,59.3485],[5.7267,59.667],[6.2166,59.8184],[5.7305,59.8631],[6.3487,60.353],[6.5736,60.3606],[6.5269,60.1529],[6.9957,60.512],[6.1533,60.3462],[5.6714,59.9902],[5.6109,61.0696],[6.7778,61.1424],[7.0387,60.9529],[7.0401,61.0912],[7.6045,61.2105],[7.3466,61.3006],[7.4426,61.4346],[7.3312,61.372],[7.276,61.181],[6.5999,61.2896],[6.3835,61.1339],[5.6148,61.1402],[5.6292,61.4039],[5.9752,61.7947],[6.7308,61.8698],[6.0515,61.8809],[8.4288,62.9204],[8.6231,62.8462],[8.4944,62.9491],[9.7981,63.5495],[10.021,63.3908],[10.7602,63.4613],[10.7253,63.625],[11.3707,63.8048],[11.1756,63.8989],[11.4576,64.003],[11.3066,64.0489],[10.3392,63.571],[9.8706,63.591],[12.0823,65.1555],[12.5084,65.0994],[12.9155,65.3393],[12.2003,65.2456],[13.2532,66.1645],[14.0342,66.2976],[13.335,66.2363],[14.4243,67.1486],[15.4157,67.2024],[14.5849,67.2674],[14.9943,67.5703],[15.5944,67.3485],[15.6915,67.5214],[15.2187,67.6554],[16.0811,68.149],[16.3123,67.8814],[16.392,68.0916],[16.2146,68.2173],[16.3391,68.2811],[17.5528,68.4263],[16.815,68.4638],[20.3354,69.6471],[20.0545,69.3327],[20.7395,69.5205],[20.5342,69.7099],[20.7789,69.7874],[21.5642,69.9505],[21.9317,69.8147],[21.8787,70.0138],[22.8613,70.0629],[24.4457,69.8718],[24.2821,69.7004],[21.1328,68.7488],[18.1533,67.3207],[16.8246,66.3673],[12.8753,62.9963],[9.3849,60.6903],[8.7901,60.1858],[7.7411,58.8147],[7.267,58.5187],[6.3619,58.6348],[6.1082,58.8713],[6.3633,59.0009],[5.8904,59.0987]]],[[[69.029,-70.3257],[68.9761,-70.6312],[67.7774,-71.5445],[66.4645,-72.9717],[64.8091,-73.9421],[63.6875,-73.5624],[66.9375,-70.4999],[67.6031,-70.3184],[67.9408,-70.4229],[69.029,-70.3257]]],[[[51.2909,-67.4264],[51.103,-67.8309],[49.2708,-67.8751],[49.3541,-67.5626],[49.9041,-67.3253],[50.6986,-67.2819],[51.2909,-67.4264]]],[[[55.379,-66.1552],[56.0436,-66.4297],[55.8702,-67.1519],[54.7579,-67.2386],[53.5011,-67.0652],[53.2556,-66.6608],[53.6744,-66.1263],[55.379,-66.1552]]],[[[26.3567,-33.5082],[25.1397,-33.2039],[25.0603,-32.5029],[23.7373,-32.2515],[23.5256,-32.0662],[25.0603,-30.9947],[26.7536,-30.9418],[27.2166,-30.7565],[27.0182,-29.9363],[27.8914,-28.9706],[28.0369,-28.4679],[29.1348,-28.2563],[29.3201,-27.8065],[30.1403,-27.0789],[30.3784,-26.2586],[29.8359,-24.8961],[29.9021,-24.2742],[29.6376,-24.089],[29.8889,-23.2292],[29.7566,-22.819],[30.5768,-22.4222],[31.1325,-22.3825],[31.2648,-22.5677],[30.6033,-23.5202],[30.643,-23.9435],[31.622,-25.24],[31.5955,-26.9069],[32.3363,-27.7006],[30.8811,-29.738],[30.2196,-30.32],[30.1138,-30.6905],[28.2749,-32.516],[27.124,-33.2966],[26.3567,-33.5082]]],[[[28.9453,-14.4362],[30.039,-13.8364],[31.256,-12.1166],[32.4025,-10.9085],[32.6231,-10.9085],[32.7023,-11.076],[32.2349,-11.9404],[30.4181,-14.6567],[30.2682,-15.1681],[28.9364,-15.8473],[28.522,-16.3853],[27.9398,-16.5264],[26.9962,-17.7347],[26.6522,-17.717],[28.0546,-15.6268],[28.5397,-15.274],[28.4955,-15.027],[28.9453,-14.4362]]],[[[28.3897,-2.6096],[28.4074,-1.5247],[28.6631,-0.4399],[29.0776,0.4067],[30.6387,2.0031],[31.0973,2.7175],[31.353,2.6998],[31.1502,2.1265],[30.5416,1.6238],[30.1801,0.5743],[29.4215,-0.3429],[29.3599,-1.3043],[28.9188,-2.001],[28.8572,-2.4509],[29.2011,-3.2974],[29.0599,-4.0207],[29.1923,-4.3382],[29.0335,-4.9643],[29.1393,-5.4759],[28.4514,-4.1265],[28.0105,-3.756],[28.3897,-2.6096]]],[[[77.5317,9.4819],[77.3289,9.2065],[77.745,8.6643],[77.7371,8.3279],[77.1616,8.3961],[76.4041,9.9531],[76.3657,10.6239],[75.8332,11.0864],[75.1358,12.4943],[74.863,13.5509],[74.1149,14.8645],[73.9324,15.585],[73.6366,16.0349],[72.8901,18.7492],[72.9721,19.1533],[72.8522,18.9859],[72.859,19.2931],[72.9872,19.2774],[72.8598,19.3321],[72.9476,19.9476],[73.4714,20.793],[73.9697,20.6356],[74.0834,18.5255],[75.8591,13.1838],[76.4146,12.1706],[77.395,11.895],[76.765,10.5521],[77.1765,10.484],[77.8262,10.7239],[78.4807,10.7259],[78.5684,10.103],[77.5317,9.4819]]],[[[41.676,9.6585],[42.8005,9.7776],[43.1842,9.4337],[43.3827,8.9838],[43.171,8.6002],[42.3244,8.8516],[42.1788,8.706],[41.3453,8.7457],[40.5383,8.2033],[40.5913,7.9123],[41.0147,7.8329],[41.3322,7.2905],[40.9353,6.8143],[40.9617,5.7956],[40.0225,5.6236],[39.7578,5.2135],[38.5011,4.7637],[38.3556,4.1023],[38.2101,4.1023],[37.9984,4.4066],[37.919,4.9489],[37.2576,4.8563],[36.7681,5.2929],[36.2786,6.0999],[35.2864,5.9279],[35.1409,6.1528],[35.2996,6.5232],[34.8367,6.9201],[35.0879,7.2905],[34.8499,7.6874],[34.863,8.1901],[34.2017,8.9838],[33.9502,9.7512],[34.5588,11.0873],[34.9557,11.2195],[35.1674,11.5635],[35.5907,11.3651],[35.9082,11.7487],[36.014,12.3441],[36.5564,12.6483],[36.5432,12.8732],[36.2124,13.0717],[36.2389,13.2833],[37.0326,13.4685],[37.0459,13.9316],[37.6941,14.2623],[37.9454,15.916],[37.5618,16.3525],[37.4559,17.0668],[37.6676,17.8209],[38.2101,18.0326],[38.5938,17.4373],[38.9641,16.0747],[39.4271,15.3074],[40.1548,14.5401],[40.1812,13.1113],[40.1018,12.688],[39.9033,12.5292],[39.9166,11.8016],[40.2738,10.7036],[40.0092,9.3675],[40.1548,9.1162],[41.676,9.6585]]],[[[47.0573,13.6457],[46.8195,13.6153],[46.5375,13.8214],[46.6602,14.863],[47.3051,15.6326],[49.3264,16.5524],[51.2107,16.8731],[51.7733,16.6964],[51.874,16.0851],[51.6811,15.3788],[49.5455,14.7925],[48.6486,14.0491],[47.8936,14.0183],[47.0573,13.6457]]],[[[78.1819,12.6813],[78.6797,14.1504],[78.7539,15.8714],[81.1998,18.5838],[81.358,19.2759],[81.9606,19.867],[82.3723,19.9545],[82.877,20.4198],[83.507,20.7063],[84.4253,20.6756],[85.1946,20.1959],[85.1902,20.0027],[84.1631,18.626],[83.1343,17.7099],[82.4583,17.421],[81.1976,17.3011],[80.7254,16.95],[79.7488,15.7419],[79.4606,14.323],[79.7522,13.9681],[79.8562,13.3447],[79.5078,12.2309],[78.9602,11.4293],[78.7,11.3279],[78.0361,11.327],[77.6812,11.7327],[78.1819,12.6813]]],[[[41.4677,19.5422],[40.6936,21.0729],[40.7413,21.4132],[40.9257,21.5243],[41.6041,21.3874],[42.6541,20.3208],[43.372,18.8423],[43.8174,17.2452],[43.8865,16.7593],[43.7444,16.3599],[43.4412,16.577],[41.4677,19.5422]]],[[[75.3073,21.0697],[74.9646,21.2365],[74.8676,21.5332],[75.2481,22.0035],[77.564,22.4396],[78.7644,22.9148],[79.6731,22.9776],[79.931,22.785],[79.9824,22.4069],[79.3106,21.6711],[78.5071,21.6273],[77.6293,21.221],[75.3073,21.0697]]],[[[73.5372,22.416],[73.7172,22.7025],[74.5162,22.6565],[74.7742,22.8613],[76.0796,23.1923],[78.3991,24.4886],[79.2525,24.4763],[79.6669,24.0812],[79.6121,23.6455],[79.1911,23.2582],[78.2903,23.2042],[77.7891,22.8572],[76.8787,22.7136],[75.912,22.2233],[75.2871,22.2535],[73.9004,21.8459],[73.6449,21.9255],[73.5372,22.416]]],[[[37.5637,24.9846],[35.9181,27.1711],[35.4794,28.234],[35.4933,28.7665],[36.0299,28.8737],[36.7088,28.66],[37.1355,27.9215],[38.1727,26.8832],[39.5731,24.4658],[39.9841,23.4127],[39.9174,22.7582],[39.5498,22.6194],[39.322,22.8095],[38.5735,23.9217],[37.5637,24.9846]]],[[[93.0671,25.0911],[91.9821,25.318],[90.6676,25.2894],[90.3696,25.4121],[90.318,25.7136],[90.4751,25.9595],[92.7365,26.3388],[93.0327,26.6481],[93.8665,26.6379],[93.9317,26.4869],[93.3704,25.6931],[93.4403,25.377],[93.0671,25.0911]]],[[[87.3427,26.3654],[82.0989,27.8605],[81.5751,28.3319],[79.2485,29.3966],[79.0635,29.7796],[79.3051,29.9589],[77.314,31.1263],[75.5824,32.6022],[75.5949,33.0491],[76.3818,33.7907],[77.3756,33.9119],[78.0294,33.5228],[76.267,34.8179],[75.7482,35.8102],[75.7073,35.9427],[75.69,36.3015],[75.6581,36.4063],[75.4837,36.6306],[75.692,36.2261],[75.6079,35.1795],[75.1326,34.5828],[74.4056,34.1037],[75.2399,33.8628],[75.2006,33.1983],[73.2388,32.9099],[72.6553,33.1221],[72.6394,33.949],[73.5561,34.1304],[71.9513,34.609],[71.2683,34.2781],[69.6758,34.3117],[67.0193,34.6456],[66.7522,35.0998],[66.7085,35.8776],[67.3727,36.5873],[71.0665,37.4122],[71.6622,37.1673],[71.2156,37.5825],[71.2887,39.2263],[72.2439,39.5056],[74.2396,39.5599],[75.6733,39.1955],[76.8676,38.3469],[76.9727,38.0478],[76.4543,37.8999],[78.2615,36.1912],[77.9601,36.7152],[78.2726,37.1097],[79.1597,37.132],[81.3436,36.4099],[82.135,36.6799],[83.4944,36.8269],[86.0426,37.7114],[87.5874,37.5045],[86.6372,37.7255],[86.5115,38.0231],[86.8748,38.282],[89.4722,39.1794],[93.8374,39.5182],[94.0425,38.9446],[94.0237,38.4033],[93.5419,38.4003],[92.625,38.7584],[91.2756,38.6701],[91.2952,38.5219],[91.8438,38.2316],[91.9248,37.9067],[91.8136,37.7216],[90.3602,37.7458],[89.5134,37.5307],[91.1991,37.5536],[93.0138,36.6162],[95.1564,36.299],[95.7616,36.4398],[97.5833,35.9664],[98.5892,36.2733],[99.2584,36.0698],[99.4717,35.3639],[99.1629,35.0867],[97.5928,35.3602],[87.3364,35.6878],[86.7385,35.4877],[80.8251,35.1776],[78.9718,35.9162],[79.4833,35.3779],[79.8417,34.2114],[79.0706,33.3746],[78.2244,33.3965],[84.5206,29.3185],[84.9081,29.1787],[87.3937,29.1336],[88.0577,29.3204],[92.4732,29.103],[93.3657,28.8876],[94.3936,29.2435],[95.2706,29.7752],[95.6506,29.582],[94.7964,29.0095],[95.283,28.434],[95.3269,28.1443],[94.3472,27.3429],[93.8301,27.1243],[91.6824,26.8598],[89.59,26.9041],[88.8007,27.1601],[87.7805,26.904],[87.0187,27.0266],[87.6238,26.778],[87.6348,26.4702],[87.3427,26.3654]],[[89.2188,37.5267],[88.9791,37.5897],[87.5874,37.5045],[89.2188,37.5267]],[[72.2067,37.1202],[72.4859,37.2475],[72.107,37.1048],[72.2067,37.1202]],[[72.7942,37.3637],[73.0986,37.4238],[72.9179,37.4103],[72.7942,37.3637]],[[74.9292,37.3347],[75.986,37.7884],[75.5017,37.6032],[74.3554,37.5176],[74.7345,37.4753],[75.1697,36.9998],[74.9292,37.3347]],[[73.8128,34.1517],[73.7529,34.1498],[73.739,34.1456],[73.8128,34.1517]],[[73.9667,34.1493],[73.9392,34.1558],[73.9127,34.1549],[73.9667,34.1493]]],[[[50.5093,29.8685],[49.0565,32.0435],[48.5529,32.4913],[46.7461,33.5018],[46.3815,34.161],[46.1198,35.2174],[46.2819,35.7482],[46.9485,35.8685],[48.7059,34.4114],[50.7554,32.4184],[53.3086,29.4],[55.9188,28.4889],[56.5402,28.0062],[56.4727,27.6698],[56.1972,27.4157],[55.245,26.871],[54.6085,26.768],[53.1969,27.2111],[52.2621,27.9418],[50.5093,29.8685]]],[[[53.9723,29.7829],[52.8346,31.0383],[52.0569,32.0476],[51.78,32.8589],[50.6255,33.4818],[49.9977,34.454],[50.0617,34.8662],[50.3793,34.8157],[51.2308,33.9063],[52.1808,33.3825],[52.4629,32.6934],[53.3256,31.6337],[54.7877,30.3749],[55.9483,29.7036],[56.2127,29.3475],[56.0813,29.0056],[55.7316,28.9018],[53.9723,29.7829]]],[[[54.9293,36.9576],[55.1486,36.6019],[55.0175,36.3616],[53.549,35.8838],[52.9437,35.3936],[52.5934,35.3796],[48.3862,37.1209],[48.1849,37.4258],[48.4463,37.7907],[48.7319,37.8483],[49.5003,37.3875],[51.3705,36.6514],[52.6691,36.6154],[54.9293,36.9576]]],[[[47.1438,39.1276],[46.4558,39.0264],[45.2161,39.7183],[44.6653,40.4484],[44.0702,40.5872],[43.8364,41.0931],[42.0,41.3864],[41.5785,40.8005],[41.002,40.4487],[39.0874,40.1433],[37.3079,40.3445],[34.2627,41.1447],[34.0513,41.3776],[34.3092,41.7669],[34.7882,41.9199],[35.558,41.634],[35.8504,41.6871],[36.4054,41.2746],[37.9147,40.9804],[39.4417,41.0612],[40.1284,40.943],[41.3989,41.2421],[42.2589,42.1057],[43.1984,42.2457],[44.3681,42.0007],[44.7865,41.5204],[46.4401,40.693],[47.1827,39.9316],[47.1438,39.1276]]],[[[83.5795,43.5992],[82.2373,43.739],[81.2429,44.1072],[81.2349,44.7094],[81.6079,44.9605],[85.6756,44.0607],[86.703,44.1389],[87.9912,43.9055],[90.2971,43.8779],[92.1076,44.1749],[94.9287,43.8955],[95.1802,43.6948],[95.2214,43.2952],[94.8987,42.7366],[93.9517,42.5456],[92.7261,43.1408],[90.9574,43.1586],[90.5671,42.9841],[90.5287,42.8154],[89.7805,42.6608],[88.7257,42.9573],[88.4937,42.8386],[88.3578,42.5104],[86.8767,41.7296],[84.4883,41.9972],[82.1655,41.6626],[77.1747,39.8857],[74.8532,39.6603],[73.0112,39.7689],[73.3543,41.7954],[73.1238,42.4226],[73.1984,42.6491],[73.5083,42.7674],[74.3918,42.7053],[73.8519,42.733],[74.7466,42.6804],[75.0911,42.6629],[75.4158,42.7177],[76.3235,43.2132],[83.5795,43.5992]]],[[[74.7343,42.6831],[74.3918,42.7053],[74.7068,42.6892],[74.7343,42.6831]]],[[[40.6067,44.9728],[42.5591,44.0933],[44.2479,43.8189],[45.0617,43.325],[45.9667,43.444],[47.0443,43.2153],[47.2621,42.6287],[48.5554,41.8555],[49.4635,40.5537],[49.2483,40.3707],[48.7748,40.4531],[46.7056,41.5046],[45.8388,41.5952],[44.1228,42.2389],[41.605,42.5006],[41.34,42.7975],[39.8418,43.4956],[38.7827,44.2716],[37.2067,44.9704],[37.3062,45.0986],[40.6067,44.9728]]],[[[27.4309,43.0956],[26.8908,42.6926],[24.9954,42.506],[22.9187,42.8906],[22.3274,43.7017],[22.3803,43.8135],[23.5852,43.5059],[25.2221,43.3725],[26.431,43.4995],[27.3317,43.4033],[27.4309,43.0956]]],[[[83.1892,45.1204],[81.4789,45.1395],[80.7756,44.3983],[79.8615,44.3673],[78.7709,43.9287],[77.7367,43.9399],[77.5596,44.2547],[76.7925,44.3574],[76.9401,44.6707],[77.4544,44.8145],[78.3123,45.5551],[79.9075,45.7015],[80.8212,46.314],[82.049,45.6722],[82.8176,46.0037],[83.0758,45.9265],[83.1892,45.1204]]],[[[84.0432,46.3801],[83.8768,46.5362],[84.104,46.8158],[83.5454,46.987],[82.5133,46.9068],[81.9767,47.1578],[80.2719,47.2422],[79.2739,47.7897],[79.0306,48.2853],[79.4927,48.838],[81.8063,48.5643],[83.864,47.5829],[85.5636,47.3926],[85.775,47.0288],[85.637,46.6976],[85.3088,46.4816],[84.0432,46.3801]]],[[[97.1403,43.3635],[96.5776,43.2567],[95.0105,44.3395],[92.8627,44.4113],[91.1151,44.6755],[90.6558,44.8797],[90.075,45.4215],[89.3362,46.7969],[88.4003,47.5577],[86.6301,48.0971],[84.3342,48.3049],[83.9247,48.7503],[83.3029,49.9025],[82.0015,50.6446],[81.9981,51.2662],[82.5872,52.0616],[83.3381,52.3049],[86.7,52.0291],[87.7544,51.5637],[88.298,51.0969],[88.5215,50.5275],[88.6021,50.9615],[88.3679,51.8231],[88.5493,53.0737],[88.8858,53.5028],[89.8261,53.7195],[90.4076,54.1703],[90.8638,54.1082],[91.0662,53.9158],[91.1891,53.5589],[91.0581,52.77],[91.1994,52.937],[93.9986,53.1314],[92.8447,53.8381],[91.6699,54.8164],[91.7644,55.3309],[92.6648,55.8803],[93.1356,55.8358],[94.6231,55.2168],[95.1266,55.2031],[95.9285,55.5075],[96.7252,55.4796],[98.9575,54.6331],[99.8158,54.0369],[103.432,52.3569],[103.7089,52.0997],[103.6636,51.8604],[98.3884,51.7164],[96.6108,52.01],[95.9405,52.3646],[96.0098,52.031],[95.6528,51.5364],[94.6447,51.6266],[92.0903,51.5084],[91.0676,51.3367],[90.8523,51.548],[90.5267,50.9561],[90.5641,50.823],[91.3419,51.2872],[92.3491,51.5067],[94.245,51.5971],[96.1774,50.999],[96.658,50.3813],[96.189,50.0226],[95.7492,50.063],[94.9067,50.6123],[94.0891,50.741],[92.523,50.6843],[90.9909,49.8916],[90.9624,49.1591],[90.3551,49.249],[90.0949,49.5313],[88.7202,50.1589],[89.6531,49.6282],[89.9019,49.3211],[90.9547,49.0865],[92.2398,47.9801],[94.9133,46.9121],[95.6123,46.8321],[97.0446,46.1816],[98.9775,45.6801],[100.5635,44.7781],[100.7905,44.4373],[100.6665,44.1605],[100.3294,44.0388],[98.0431,44.0974],[97.1403,43.3635]],[[91.0003,51.9993],[90.9698,52.4332],[90.9583,52.3908],[90.9386,51.8633],[91.0003,51.9993]]],[[[57.1298,55.2413],[57.6043,57.5978],[57.7426,59.9702],[58.5708,62.2546],[58.624,64.1082],[59.1911,65.0822],[59.746,65.5319],[62.725,66.1023],[64.3336,66.9896],[64.8823,67.496],[65.3445,67.583],[65.6676,68.2292],[66.215,68.3576],[66.7648,68.2176],[66.9097,67.6798],[66.6325,67.1064],[64.5139,66.5627],[63.2073,65.8023],[62.3854,65.5441],[61.7444,64.9382],[60.4099,64.5521],[60.1973,64.2691],[59.9391,63.11],[59.7921,60.7552],[59.5193,59.8152],[60.4132,56.1609],[60.3203,55.7774],[59.6604,54.7996],[58.7271,53.9938],[58.5253,53.5794],[58.3605,52.367],[58.1038,51.99],[57.3786,51.5668],[56.6937,51.7731],[56.2687,52.3817],[56.2201,53.1028],[57.1298,55.2413]]],[[[157.787,-77.2231],[160.2921,-74.685],[162.5534,-73.1013],[166.9304,-70.9474],[169.8782,-71.6454],[170.3458,-71.4784],[170.4794,-71.8459],[170.0301,-72.1155],[169.9784,-72.5473],[168.4284,-72.3834],[169.4342,-72.653],[167.0807,-73.1099],[166.4528,-72.936],[166.7521,-73.1737],[165.347,-73.8794],[165.1295,-73.3826],[164.813,-73.3968],[164.7496,-73.5588],[164.9799,-73.9259],[164.7757,-74.0285],[164.9549,-74.1896],[164.8013,-74.2841],[163.2655,-74.4263],[162.6041,-74.8231],[162.4101,-75.2376],[160.9107,-75.3347],[162.1896,-75.4669],[162.5618,-75.753],[162.5842,-76.0811],[162.4365,-76.1549],[162.6223,-76.2173],[162.7619,-76.7413],[162.4503,-76.9557],[162.7348,-77.0122],[162.5635,-78.7266],[162.3781,-78.8178],[161.5104,-78.5714],[161.9515,-79.0276],[160.8735,-79.0497],[160.4827,-79.2015],[160.6461,-79.4269],[159.9759,-79.5856],[160.3463,-79.6915],[159.8719,-79.7898],[160.5588,-80.0105],[158.5736,-80.4234],[160.6373,-80.4499],[160.5213,-80.5834],[160.8303,-80.7299],[160.2602,-80.7867],[160.7168,-80.9074],[160.7167,-81.1996],[160.4698,-81.3406],[163.6801,-82.1873],[161.1665,-82.4078],[161.2832,-82.4899],[163.0118,-82.535],[164.4821,-82.3695],[167.602,-83.0475],[168.5277,-83.1042],[167.6576,-83.2722],[168.1101,-83.362],[170.6635,-83.4494],[179.9,-84.3689],[179.9,-86.9513],[171.5148,-86.3087],[160.2252,-84.9058],[155.5825,-82.4004],[155.8163,-80.2628],[157.787,-77.2231]]],[[[166.9103,-45.2572],[166.975,-45.1799],[166.9795,-45.1797],[167.0227,-45.2998],[166.9103,-45.2572]]],[[[166.7671,-45.7825],[167.0033,-45.7121],[166.81,-45.699],[166.9908,-45.5317],[166.7658,-45.545],[166.8692,-45.3112],[167.1557,-45.4109],[167.2301,-45.2903],[167.0259,-45.1236],[167.2595,-45.0822],[167.1719,-44.9971],[167.4107,-44.8279],[167.4662,-44.9583],[167.485,-44.7714],[167.787,-44.595],[167.909,-44.6647],[167.8565,-44.5007],[168.3666,-44.082],[169.1789,-43.9131],[169.1482,-43.8041],[172.0953,-42.3321],[172.9292,-41.5115],[173.2833,-41.4419],[172.6941,-42.3969],[171.7739,-43.0889],[168.8748,-44.7549],[167.3645,-46.0066],[166.8211,-45.9305],[166.7671,-45.7825]]],[[[143.9605,-37.5322],[143.8517,-37.1258],[144.2291,-36.9564],[145.8523,-36.8273],[146.9371,-36.2061],[148.1766,-35.1797],[149.1655,-33.1225],[149.0089,-31.3246],[150.0366,-30.153],[151.303,-29.2747],[151.5728,-28.4586],[151.6458,-27.2972],[151.3934,-26.6629],[150.8167,-26.3044],[148.1226,-25.8776],[146.2429,-24.3907],[145.4868,-23.4045],[143.9622,-20.1888],[143.2637,-15.4963],[142.6808,-13.0956],[142.8596,-12.6575],[143.1744,-12.8925],[143.8032,-14.5082],[144.8793,-15.3962],[145.8292,-17.3191],[146.0671,-18.6828],[146.3113,-18.9952],[148.4287,-20.4716],[149.0567,-21.2079],[149.6796,-22.6957],[150.793,-23.7023],[152.5546,-25.8625],[153.2748,-28.4484],[153.273,-29.3149],[152.6748,-31.1966],[152.1033,-32.3665],[151.0068,-33.6013],[149.8693,-35.9938],[149.5862,-37.0815],[149.0327,-37.4095],[147.0459,-38.0047],[146.1638,-38.0092],[143.9605,-37.5322]]],[[[146.2428,-6.2664],[147.8259,-8.5477],[148.5474,-9.2577],[149.0628,-9.4965],[149.1202,-9.8148],[148.6994,-9.8539],[147.8527,-9.5524],[146.2846,-7.8476],[144.8545,-6.9835],[143.6985,-6.6326],[140.4769,-4.9694],[138.4563,-4.47],[135.5908,-4.1605],[135.4436,-3.8834],[136.5255,-2.9368],[137.1631,-3.1611],[139.0123,-3.2542],[141.1423,-4.0746],[144.2913,-4.8442],[146.2428,-6.2664]]],[[[105.7583,14.5293],[105.434,14.0925],[103.9529,14.2756],[103.1561,14.141],[102.8425,13.8626],[102.5435,13.8301],[101.2302,14.2557],[100.7473,14.6595],[100.6459,14.9872],[101.147,15.569],[101.6827,15.0961],[104.8689,14.9226],[105.4757,15.0779],[105.7583,14.5293]]],[[[108.5848,15.3953],[109.25,13.7011],[109.3276,13.1671],[109.0801,12.4589],[109.0868,11.6537],[107.8987,10.7719],[107.3952,10.7681],[107.0419,11.1448],[106.9899,12.2356],[106.5064,14.0924],[105.8379,14.8708],[105.3807,16.8361],[103.9423,18.5047],[102.9786,18.3669],[102.5283,18.9977],[102.489,19.3648],[102.969,20.7101],[103.4287,21.4103],[104.2201,21.7159],[105.5045,21.292],[106.0816,20.9349],[106.169,20.5806],[105.6023,20.1347],[105.3754,19.3408],[105.7969,18.4032],[108.5848,15.3953]]],[[[94.1365,19.307],[93.4896,20.1142],[93.5188,20.3818],[93.2715,20.8434],[93.3073,21.1407],[93.5499,21.3099],[93.9782,21.3218],[94.2092,21.1667],[94.4393,20.3716],[94.8511,19.92],[94.9922,19.5421],[95.1112,17.2532],[94.7119,17.3354],[94.1365,19.307]]],[[[92.3967,22.4758],[92.6192,23.2578],[92.2874,23.7251],[92.3998,23.8668],[92.6686,23.8195],[93.3098,23.2631],[93.7695,22.6098],[93.6392,21.6823],[93.6117,21.5805],[93.4907,21.406],[92.9485,21.3798],[92.6067,21.6796],[92.3967,22.4758]]],[[[109.976,23.8684],[109.7869,24.4362],[109.4578,24.6171],[109.8239,25.6137],[110.1116,25.8156],[111.5565,25.869],[112.0405,25.6018],[113.7568,25.3192],[114.0916,25.0554],[114.1069,24.8677],[113.8228,24.7142],[113.6228,24.2189],[113.1249,23.6702],[112.1831,23.2626],[111.7144,23.2899],[111.323,23.5434],[109.976,23.8684]]],[[[93.3047,24.3765],[93.8482,25.9861],[94.7037,26.8652],[95.4937,27.2864],[95.7212,27.2567],[95.8969,26.9725],[95.8764,26.5305],[95.0753,25.6394],[94.6411,24.2968],[94.1583,23.3989],[93.6196,23.4951],[93.3047,24.3765]]],[[[115.9137,26.9179],[116.3815,27.8269],[117.2435,28.435],[118.2793,28.2633],[118.0336,26.5117],[117.6672,25.5573],[116.7979,25.3628],[116.1592,25.6461],[115.7798,26.2144],[115.9137,26.9179]]],[[[108.074,27.8076],[107.3906,27.3514],[106.5953,27.315],[105.8186,26.3951],[105.4458,26.4088],[104.3955,27.0725],[103.8522,28.0523],[104.282,28.6292],[105.9257,28.8276],[106.7131,29.4658],[107.2814,29.6439],[107.8446,29.242],[108.0801,29.3387],[108.3374,28.5832],[108.074,27.8076]]],[[[115.5205,30.4874],[115.1115,30.712],[114.9828,30.9605],[113.1166,31.325],[112.8612,31.6766],[112.9078,32.4831],[113.5447,32.5775],[114.2033,32.1982],[115.6372,32.0908],[117.1875,31.291],[116.0222,30.0788],[115.6542,30.1329],[115.5205,30.4874]]],[[[114.1934,32.8958],[113.9634,32.533],[112.525,33.6185],[112.4144,33.6158],[112.4529,33.2716],[111.8587,33.335],[111.9573,33.0584],[111.6854,32.6816],[110.7744,32.8492],[109.7931,32.6342],[108.9313,32.7005],[107.5982,33.2718],[105.5918,33.2336],[105.2429,33.4821],[105.0276,34.0355],[105.2918,34.4408],[105.7713,34.6422],[107.349,34.5393],[107.8482,34.3579],[109.2136,34.3474],[111.14,34.8007],[112.0755,34.6724],[112.5183,34.7836],[111.6669,34.869],[111.3681,35.1771],[111.2987,37.8774],[111.1365,38.4858],[111.5881,40.4499],[112.2113,41.0111],[112.7327,39.0168],[112.9597,37.3338],[113.0339,35.5058],[112.8239,34.8516],[113.391,34.117],[113.3259,33.8583],[114.1934,32.8958]]],[[[100.7898,36.2043],[99.24,36.9288],[98.2131,36.9469],[97.4846,37.5253],[96.6731,37.5441],[95.2964,38.111],[94.4766,38.5971],[94.656,38.7853],[95.4268,38.9305],[94.4929,39.246],[94.3665,39.5212],[94.7085,39.8977],[95.6351,40.1407],[98.2973,39.8359],[99.6454,39.4428],[101.0133,38.3928],[102.2383,38.243],[102.7067,37.9389],[102.9568,37.4511],[102.3034,36.2186],[102.0642,36.0469],[101.9149,36.1793],[100.7898,36.2043]]],[[[113.0635,37.6617],[112.8762,38.2091],[113.3253,39.1168],[113.2732,41.3236],[114.0137,41.653],[114.5032,41.5818],[114.8042,41.3687],[114.8933,40.9796],[114.6091,40.266],[114.6845,39.7097],[114.3939,38.8368],[114.4181,36.2348],[113.9329,35.517],[113.0951,35.3883],[113.1705,36.0715],[112.9885,37.0748],[113.0635,37.6617]]],[[[129.657,40.8602],[128.5112,40.1302],[127.5682,39.782],[127.507,39.4638],[127.0805,39.6534],[127.0685,39.9312],[126.5322,40.5601],[126.5197,41.0377],[126.6914,41.3004],[127.8504,41.7125],[128.2177,42.3666],[128.9236,42.6781],[130.0991,42.8766],[130.5701,42.4113],[129.7563,41.7123],[129.657,40.8602]]],[[[106.5476,41.0469],[105.7009,41.5408],[106.0184,42.1405],[107.6826,42.4036],[111.0984,41.9642],[111.557,41.6819],[111.7069,41.2233],[110.8162,40.8352],[107.3503,41.34],[106.5476,41.0469]]],[[[132.5156,43.1791],[132.6928,43.8001],[135.9221,47.0017],[137.4271,48.7834],[138.1531,50.0964],[139.6307,51.4019],[140.5066,51.4135],[140.195,49.0454],[137.5397,45.9877],[134.7661,43.4517],[133.3397,42.863],[132.6765,42.8797],[132.5156,43.1791]]],[[[98.5535,46.5063],[96.5604,46.9112],[96.3053,47.3092],[95.8405,47.595],[95.843,48.0539],[96.2014,48.3731],[97.1135,48.7512],[98.8602,48.707],[102.6079,47.5086],[103.4797,46.9941],[103.8004,46.4764],[103.4705,45.9002],[102.5844,45.5837],[100.7213,45.7394],[98.5535,46.5063]]],[[[117.9244,46.2813],[119.6611,49.5454],[120.1652,51.6303],[120.7828,52.0473],[120.5541,52.9946],[121.0971,53.2514],[122.1856,53.5147],[123.1235,53.5209],[124.7507,53.1472],[125.0486,52.8897],[125.1564,52.3481],[124.6106,51.1941],[125.7831,51.6569],[126.5712,51.5209],[126.9215,51.1722],[127.2806,50.1351],[127.9426,49.6569],[128.7822,49.5729],[130.0779,49.0991],[130.4403,48.7653],[130.7647,48.1303],[130.8496,47.7579],[130.6465,47.571],[130.952,47.1758],[128.6762,46.4691],[126.9517,48.8524],[125.0027,49.3416],[124.5808,49.6754],[124.3618,50.1702],[124.4131,50.8638],[123.5451,49.8489],[123.8993,49.1095],[123.8707,48.7947],[123.0584,48.2748],[122.8457,47.8874],[123.324,46.9545],[123.2673,46.5615],[121.9233,44.9276],[121.1513,44.3497],[119.5912,43.6426],[119.3445,43.2969],[117.9983,43.3054],[117.453,43.1627],[117.9244,46.2813]]],[[[115.1289,50.6676],[114.7546,49.636],[114.2002,49.37],[113.5767,49.3725],[112.8643,49.6791],[111.263,49.9418],[111.0679,50.1195],[111.8981,51.405],[113.7026,53.1696],[113.9212,53.8656],[114.8712,54.8592],[115.4329,56.4037],[116.9194,58.4916],[117.6541,58.8513],[118.3197,58.9079],[119.6956,58.3408],[120.7713,58.0977],[121.2239,57.607],[121.3971,56.9574],[121.0745,55.6753],[120.2493,54.439],[119.5271,53.6113],[119.1287,53.4803],[118.2955,52.2792],[117.8994,52.1586],[117.7013,51.7486],[117.0592,51.2662],[116.5411,51.3076],[115.5062,50.986],[115.1289,50.6676]]],[[[130.575,56.7874],[131.7175,57.092],[134.561,56.8497],[136.3789,56.899],[137.5466,57.1615],[137.8684,56.9781],[138.134,56.565],[134.1737,54.5089],[131.2454,54.3145],[130.33,54.7525],[128.7639,54.8828],[127.3676,54.6888],[126.1464,54.8991],[124.7861,54.8863],[123.5352,55.8726],[123.1018,56.7066],[123.5083,57.1276],[124.0947,57.3834],[125.9047,57.3953],[127.2,57.243],[128.41,56.739],[130.575,56.7874]]],[[[157.6167,55.756],[160.273,58.1829],[161.6052,59.7336],[162.4985,60.0396],[163.419,60.6101],[163.9378,60.6676],[163.9204,60.3082],[162.2448,58.9057],[160.1204,56.4553],[158.9696,55.6072],[157.3749,53.4595],[157.0778,53.3583],[156.8994,53.7416],[156.9255,54.2899],[157.6167,55.756]]],[[[170.5183,63.147],[175.1873,63.64],[176.4149,63.6379],[177.0923,63.4676],[177.1076,63.1957],[176.845,63.0584],[174.1827,62.5924],[166.4329,60.6646],[165.5524,60.6398],[165.1983,60.8877],[165.1343,61.3325],[170.5183,63.147]]],[[[155.8237,62.0948],[158.655,63.3944],[163.2426,65.001],[164.1138,65.0625],[164.5111,64.653],[164.4133,64.3054],[163.984,64.0756],[156.8342,61.687],[155.1975,60.7506],[154.61,60.7673],[154.4952,61.1514],[155.8237,62.0948]]],[[[144.9835,64.6926],[142.5542,65.2018],[139.2172,66.2481],[138.2048,66.8505],[137.4929,67.5015],[137.0305,68.0987],[136.9683,68.6673],[137.3167,68.8327],[138.3115,68.6976],[140.4606,67.1113],[142.5265,66.3382],[145.5808,65.6703],[146.4995,65.3151],[146.8659,64.9923],[146.999,64.2199],[146.5693,64.0782],[144.9835,64.6926]]],[[[128.7478,64.1772],[127.635,64.5152],[127.1619,64.8403],[126.7488,65.2982],[126.396,66.0579],[126.2987,67.1531],[126.8836,69.3442],[127.3389,70.0515],[128.0374,70.5098],[129.0432,70.6076],[130.2869,69.866],[130.3584,68.7474],[130.0132,67.32],[130.4403,66.1126],[130.8619,65.6622],[131.6824,65.2432],[138.8079,63.9485],[139.2544,63.7198],[139.5209,63.1962],[139.3189,62.7745],[138.9501,62.725],[136.8955,63.2412],[128.7478,64.1772]]]]}},{"type":"Feature","properties":{"kind":"forest"},"geometry":{"type":"MultiPolygon","coordinates":[[[[-59.6461,1.6417],[-58.6407,1.3771],[-57.2119,1.9063],[-55.9419,1.9063],[-56.1007,2.5413],[-54.9189,2.5942],[-54.4073,2.1179],[-52.5906,2.3472],[-52.3436,3.1939],[-51.4834,4.313],[-51.2199,4.0936],[-50.7144,2.134],[-50.4589,1.8296],[-49.9571,1.6599],[-49.8989,1.163],[-50.7551,0.2226],[-51.2829,-0.0852],[-51.9808,-1.368],[-52.6642,-1.5518],[-51.9476,-1.5867],[-50.8949,-0.9376],[-50.69,-1.7617],[-50.4032,-2.0155],[-49.3137,-1.7317],[-49.6365,-2.6569],[-49.211,-1.9165],[-48.71,-1.4877],[-48.4629,-1.614],[-48.3498,-1.4821],[-48.4498,-1.1455],[-48.1159,-0.741],[-47.5459,-0.6867],[-48.075,-2.768],[-47.7928,-4.3555],[-46.7344,-5.1846],[-46.17,-6.4017],[-46.9814,-9.1885],[-47.1578,-15.0095],[-48.4278,-16.8792],[-51.6733,-17.4437],[-52.4847,-18.502],[-53.6136,-18.502],[-54.3544,-17.5142],[-54.4603,-15.8209],[-54.0016,-14.4097],[-54.3015,-13.9158],[-54.9188,-13.7042],[-56.6827,-14.0217],[-58.4114,-14.6919],[-59.3639,-16.0325],[-59.3815,-16.985],[-58.9758,-18.008],[-60.5457,-17.6729],[-61.798,-17.867],[-63.2444,-19.9483],[-64.0205,-20.1247],[-65.1494,-19.6308],[-66.1725,-18.5372],[-66.6311,-17.3025],[-69.8061,-14.3392],[-71.5347,-13.7394],[-73.7219,-12.6811],[-76.262,-9.8942],[-77.9553,-6.7192],[-78.7667,-3.7205],[-78.2728,-0.9689],[-77.3202,0.7244],[-76.1208,1.4653],[-74.9567,2.5236],[-71.8874,2.0297],[-70.688,1.9945],[-68.3597,2.2767],[-67.6542,2.8411],[-67.3367,2.4883],[-66.878,1.3242],[-66.3136,0.7244],[-65.2905,0.9361],[-63.4208,2.1003],[-63.4208,2.3825],[-63.9853,2.5589],[-64.2675,3.5466],[-64.7613,4.2522],[-64.1265,4.1464],[-63.9853,3.8994],[-63.1386,3.7936],[-62.3978,4.1816],[-61.6922,4.217],[-60.528,4.8167],[-59.6814,4.4286],[-59.505,3.8994],[-59.8225,3.6173],[-59.9637,2.8763],[-59.6461,1.6417]]],[[[28.4072,-1.2687],[28.4072,-3.0151],[28.7776,-4.4438],[26.7139,-6.19],[25.7078,-8.3222],[24.2692,-10.3937],[22.2553,-11.8035],[18.803,-11.7629],[18.1554,-11.204],[16.3654,-7.9727],[15.7262,-7.5541],[14.4868,-7.7754],[13.5374,-6.711],[13.1058,-6.7973],[12.5078,-6.3984],[12.3928,-6.0815],[13.0682,-5.8648],[12.4117,-5.9863],[12.1419,-5.2573],[13.6525,-4.7258],[14.8608,-4.0064],[14.9185,-3.1721],[14.343,-3.0569],[13.969,-2.165],[14.2567,-1.1293],[14.2854,0.7409],[13.9114,2.2946],[12.4729,2.5247],[11.9838,3.3591],[13.5662,4.7401],[14.7451,6.0997],[15.6941,6.153],[17.4534,5.7265],[18.9993,6.2383],[20.903,6.3513],[21.7661,8.538],[22.9745,9.545],[26.1318,8.3091],[27.0889,6.9555],[28.7001,5.2868],[30.3401,4.4524],[30.8579,3.618],[31.0001,2.647],[28.4072,-1.2687]]],[[[-51.9384,-1.4526],[-51.546,-0.6496],[-51.254,-0.5414],[-51.1607,-0.6667],[-51.4651,-1.2111],[-51.9384,-1.4526]]],[[[-48.3927,-0.2974],[-48.8336,-1.39],[-49.0385,-1.5141],[-49.1727,-1.4126],[-49.234,-1.5995],[-49.5066,-1.5116],[-49.8051,-1.7902],[-50.5076,-1.788],[-50.7598,-1.2402],[-50.577,-1.1031],[-50.7961,-0.9062],[-50.6455,-0.2729],[-50.2482,-0.1164],[-49.5352,-0.2336],[-48.3927,-0.2974]]],[[[-50.8422,-0.0502],[-50.6506,-0.1059],[-50.9264,-0.3273],[-51.0224,-0.1884],[-50.8422,-0.0502]]],[[[-49.7088,-0.1437],[-49.8301,-0.0939],[-49.5035,0.0837],[-49.3723,0.0011],[-49.7088,-0.1437]]],[[[-50.3395,0.0434],[-50.2727,0.2317],[-49.6973,0.216],[-49.839,0.0069],[-50.3395,0.0434]]],[[[-50.4246,0.5583],[-50.351,0.5817],[-50.4439,-0.0077],[-50.6239,0.0544],[-50.4246,0.5583]]],[[[-50.1529,0.393],[-50.2815,0.3908],[-50.2512,0.5854],[-50.0588,0.638],[-50.1529,0.393]]],[[[-50.2921,1.9796],[-50.3988,1.8929],[-50.509,2.0295],[-50.3626,2.1544],[-50.2921,1.9796]]]]}},{"type":"Feature","properties":{"kind":"desert"},"geometry":{"type":"MultiPolygon","coordinates":[[[[-67.8658,-22.9822],[-67.9526,-23.8161],[-68.066,-24.1078],[-68.5435,-24.4745],[-68.8305,-25.555],[-69.6577,-26.5848],[-69.8603,-27.1926],[-69.8096,-27.9522],[-69.9615,-28.0029],[-70.3837,-27.3444],[-70.9105,-27.2805],[-70.6466,-26.3294],[-70.7082,-25.8143],[-70.417,-25.274],[-70.5646,-24.6756],[-70.3923,-23.5659],[-70.5881,-23.3684],[-70.5514,-23.0547],[-70.3882,-23.0528],[-70.2647,-22.753],[-70.0355,-21.3771],[-70.3696,-18.3235],[-70.0798,-18.3295],[-69.7405,-17.889],[-68.189,-22.6343],[-67.8658,-22.9822]]],[[[25.4307,-24.2875],[25.2322,-28.296],[25.3998,-30.5317],[23.6359,-29.0765],[22.8069,-29.6674],[21.6074,-28.3886],[21.2194,-28.4856],[21.043,-28.7061],[20.5932,-28.7502],[18.7058,-27.4096],[19.2527,-26.3865],[18.6882,-25.8926],[18.6,-25.0284],[17.4182,-24.1817],[16.7656,-22.8764],[16.7304,-22.3649],[16.254,-21.9592],[16.0071,-21.3594],[15.4603,-20.795],[15.5132,-19.772],[13.9611,-17.6553],[13.9081,-17.1437],[13.3966,-16.1559],[13.1497,-15.1858],[13.6611,-15.221],[14.402,-15.8207],[16.2363,-16.3499],[17.2594,-18.1491],[17.7533,-20.3011],[19.1644,-21.1124],[22.1278,-21.8532],[23.9623,-21.7826],[24.5575,-23.0175],[25.166,-23.5467],[25.4307,-24.2875]]],[[[14.8738,-25.0812],[14.4843,-24.0583],[14.4901,-22.5015],[13.4506,-20.9167],[12.4582,-18.9268],[11.7782,-18.0036],[11.73,-17.6664],[11.7509,-15.8319],[11.9899,-15.6092],[12.2809,-14.8022],[12.5505,-13.4378],[12.9747,-12.8006],[13.3666,-12.5465],[13.4054,-12.831],[12.7704,-13.7968],[12.6116,-15.3049],[12.2676,-15.9267],[12.1486,-17.1041],[12.4926,-17.9772],[13.1672,-18.6254],[13.9743,-20.3055],[14.4636,-20.7288],[14.7415,-21.2183],[15.0855,-22.3163],[15.4161,-22.7529],[15.6411,-24.5654],[17.1889,-26.7614],[17.2022,-26.9863],[16.792,-26.9994],[16.3025,-26.5497],[14.9654,-26.295],[14.8738,-25.0812]]],[[[-38.5148,-3.7205],[-37.1742,-4.9553],[-35.4808,-5.1669],[-34.9352,-6.7868],[-35.7807,-7.0895],[-35.8865,-8.042],[-36.7331,-9.7354],[-38.1883,-9.2988],[-38.694,-8.8732],[-39.3613,-8.6242],[-40.54,-9.4529],[-41.1053,-8.7183],[-42.7128,-9.6473],[-43.0832,-11.3758],[-43.824,-10.7409],[-45.1117,-10.7762],[-45.0411,-9.7884],[-42.554,-7.46],[-42.1307,-5.608],[-42.3953,-4.8141],[-42.8801,-4.4615],[-44.4061,-4.1791],[-44.72,-3.2027],[-44.1025,-2.5418],[-44.1927,-2.8096],[-43.9329,-2.5835],[-43.1714,-2.4152],[-41.6475,-2.9138],[-40.1004,-2.8684],[-38.5148,-3.7205]]],[[[-44.7236,-3.1913],[-44.7227,-3.1903],[-44.7228,-3.194],[-44.7236,-3.1913]]],[[[-16.4375,19.6093],[-16.3555,19.8027],[-16.3733,19.7064],[-16.4375,19.6093]]],[[[31.7145,30.5077],[32.2966,30.6268],[32.5612,30.0711],[32.323,29.6213],[32.6589,28.9277],[33.5005,27.8751],[33.9591,26.649],[35.1941,24.4751],[35.7839,23.9378],[35.4981,23.9857],[35.6979,22.9462],[36.8704,22.0158],[37.1159,21.2888],[37.3615,19.092],[37.8529,18.2575],[37.7073,17.8077],[38.3291,16.207],[38.4614,15.1619],[38.2365,15.1222],[37.8793,14.5798],[38.0116,13.8522],[37.7338,13.4818],[37.1517,13.9448],[36.9797,14.8576],[36.6226,15.2545],[36.0669,15.0031],[35.1277,12.8203],[33.7518,12.1059],[33.4475,11.4048],[33.5534,9.9628],[32.1378,9.4601],[31.4765,9.3675],[29.8266,9.5728],[29.3862,9.341],[27.3886,9.7776],[26.7404,9.7114],[26.2905,10.1877],[25.2852,9.9231],[23.4595,10.32],[22.1631,10.0554],[21.1906,10.617],[20.6461,10.514],[21.0519,10.2495],[19.9935,9.9496],[19.7466,10.2847],[19.8877,10.7786],[20.0994,10.9373],[19.87,11.1137],[18.0004,11.5371],[17.136,11.5371],[18.0355,10.4611],[17.6122,10.1965],[16.8185,11.149],[16.2012,11.5548],[15.6367,11.149],[15.7778,10.0554],[14.7725,9.9496],[14.3491,10.2318],[13.3302,12.4232],[12.5675,12.86],[11.033,12.8953],[9.957,13.2304],[8.4224,14.0947],[5.3709,14.1124],[4.8241,13.9007],[3.1307,14.1477],[-0.4324,13.8654],[-1.7376,14.13],[-2.6196,14.765],[-2.8841,15.1354],[-3.8013,14.9238],[-3.4839,15.594],[-2.6725,15.6998],[-2.0727,16.1761],[-2.9371,16.2114],[-2.9017,16.4936],[-1.3672,16.8993],[-0.2383,16.7053],[-0.2207,16.9169],[-1.2261,17.1639],[-3.1487,16.6347],[-4.9126,15.6646],[-4.5245,15.5587],[-4.8597,14.7473],[-8.1582,15.2412],[-12.5855,14.8356],[-13.979,14.9238],[-16.4838,15.7704],[-16.4444,16.6548],[-16.0074,17.6225],[-16.0428,18.7337],[-16.5145,19.362],[-16.3053,19.5126],[-16.4449,19.4731],[-16.1221,20.2419],[-16.4298,20.6523],[-16.639,20.661],[-16.8761,21.0861],[-17.0722,21.0122],[-17.0495,21.1445],[-16.3867,22.5438],[-14.9043,24.7198],[-14.4592,26.1812],[-13.6351,26.6448],[-12.6157,27.9954],[-10.7247,28.1265],[-8.5758,28.7437],[-7.5668,29.1495],[-6.6059,29.8638],[-5.4153,30.1637],[-4.6833,30.7634],[-3.7308,31.2044],[-3.0605,31.2221],[-2.863,31.0716],[-2.4432,31.2221],[5.6266,34.6087],[8.6958,34.2119],[12.0824,31.8041],[14.9135,30.931],[17.9033,29.5552],[18.6211,29.5606],[18.988,30.2828],[19.7133,30.4884],[20.1919,31.1295],[19.9935,31.8703],[20.4697,32.4656],[21.7133,32.9418],[23.0371,32.6398],[23.0626,32.3598],[23.2863,32.2138],[24.9808,31.91],[25.166,31.5396],[25.8933,31.6209],[29.0026,30.8384],[29.9683,30.7723],[30.7356,30.4283],[30.9142,30.1426],[31.2515,30.1373],[31.7145,30.5077]]],[[[-105.6191,32.3867],[-105.0841,32.3217],[-104.8841,31.8967],[-104.6441,31.7667],[-104.4691,32.1617],[-105.2241,32.7517],[-105.2041,33.3617],[-105.1341,33.6267],[-104.7391,33.6567],[-104.6541,33.9316],[-104.3441,34.0717],[-103.9291,33.3217],[-103.7441,32.2517],[-103.3291,31.6467],[-102.7341,31.3917],[-102.274,31.3967],[-101.349,30.8617],[-100.6741,30.1517],[-100.784,29.5467],[-101.0391,29.4667],[-101.599,29.7267],[-102.5091,29.2417],[-102.8391,29.3167],[-102.8691,29.2117],[-102.4391,28.2317],[-101.339,27.4967],[-100.899,27.0217],[-100.514,27.0717],[-100.5391,25.8217],[-100.8291,25.5018],[-101.6017,25.2885],[-103.2341,25.6118],[-103.6191,25.1467],[-103.4841,24.8417],[-103.8241,24.2518],[-104.1841,24.3667],[-105.3591,25.5717],[-104.9141,25.9918],[-105.9631,27.1291],[-106.4432,27.0291],[-106.2641,28.5067],[-106.5041,29.4767],[-108.1092,30.1617],[-108.2441,30.4667],[-108.7039,30.7302],[-109.2292,30.7517],[-109.2992,30.4517],[-109.5091,30.4067],[-109.8292,31.0867],[-111.0192,31.3617],[-111.1892,31.1317],[-110.6342,30.5867],[-110.5392,29.8917],[-110.2992,29.4267],[-110.5045,28.7896],[-109.9243,27.6893],[-110.1592,27.5667],[-110.5299,27.8642],[-111.0724,27.9521],[-112.0747,28.9343],[-112.5908,29.7531],[-113.0443,30.6332],[-113.0836,31.2072],[-114.9336,31.9007],[-114.7899,31.6471],[-114.8819,31.1564],[-114.5292,29.9717],[-115.2142,30.6017],[-115.9643,32.5017],[-116.4743,33.0767],[-116.4993,33.3767],[-116.3343,33.5467],[-116.7193,33.9916],[-116.5193,34.0367],[-115.9193,33.6917],[-115.5143,33.7517],[-115.2793,34.0167],[-115.3292,34.2717],[-113.5942,34.9966],[-111.0442,33.2017],[-110.7242,33.2416],[-110.7042,33.4417],[-110.4292,33.5317],[-110.1044,33.4511],[-108.3942,32.5017],[-108.1692,32.8467],[-107.6191,32.6367],[-107.5541,33.2617],[-107.0091,33.8367],[-106.8241,34.2967],[-106.4841,34.2316],[-106.3891,33.5517],[-105.9592,33.6467],[-105.8341,32.6117],[-105.6191,32.3867]]],[[[-114.7711,31.7941],[-114.7156,31.7608],[-114.7437,31.7136],[-114.7711,31.7941]]],[[[-113.3238,41.4753],[-113.0022,41.1351],[-113.2662,39.9881],[-113.5853,39.9078],[-114.0386,40.785],[-113.9159,41.1691],[-113.3238,41.4753]]],[[[132.1975,-27.7408],[132.323,-28.8456],[131.9502,-29.3447],[130.9607,-29.5998],[129.1665,-29.7649],[125.1006,-29.636],[124.2232,-29.3609],[123.8052,-28.7159],[123.9064,-27.537],[124.5144,-26.7623],[124.915,-26.6031],[130.5928,-26.9168],[131.5469,-27.2131],[132.1975,-27.7408]]],[[[125.1294,-26.5914],[125.0596,-26.5894],[125.1653,-26.5894],[125.1294,-26.5914]]],[[[122.9369,-24.7212],[123.0018,-24.0134],[123.4014,-23.5558],[124.2051,-23.1341],[124.9,-23.0434],[125.803,-23.2492],[126.6965,-23.6614],[127.1047,-24.2378],[127.098,-24.7375],[126.7601,-25.4463],[125.9041,-25.7652],[124.1047,-25.7551],[123.0957,-25.3057],[122.9369,-24.7212]]],[[[121.3005,-20.9172],[121.7775,-19.7945],[122.4317,-19.1003],[123.6383,-18.7275],[125.7632,-18.6237],[127.7769,-18.8653],[128.1868,-19.3105],[128.426,-20.253],[128.3904,-21.1002],[128.0696,-21.7864],[127.2503,-22.2521],[123.1204,-22.6153],[122.0464,-22.3765],[121.7869,-22.1649],[121.3005,-20.9172]]],[[[55.3484,23.799],[56.11,22.8257],[56.1431,21.3041],[55.6854,20.2355],[55.2411,19.6968],[53.4763,18.3698],[52.8666,18.1318],[50.6791,17.8308],[47.3732,16.6456],[46.7301,16.5411],[45.6213,16.7187],[44.8608,17.303],[44.7728,18.3624],[45.0466,19.196],[48.1653,21.8754],[48.7567,22.799],[49.5872,23.5652],[49.7399,24.2452],[49.9685,24.2557],[50.6727,23.8297],[51.4943,22.8066],[52.1228,22.6218],[53.3429,22.7943],[54.9075,23.8273],[55.3484,23.799]]],[[[68.4058,27.1297],[70.4926,28.7384],[71.7008,29.2101],[71.5161,29.2745],[71.3392,29.6544],[71.5344,30.2809],[71.5352,31.0379],[72.3413,32.5039],[73.8184,33.0418],[74.9635,32.7976],[75.7434,32.2978],[75.9611,32.0493],[76.5322,30.2463],[76.5587,29.6597],[76.0818,29.3565],[75.6656,29.5882],[75.4502,28.5811],[74.5789,27.5081],[72.9138,26.3832],[71.438,24.8657],[70.3126,24.7518],[69.3093,24.4161],[68.7207,24.5605],[68.5072,24.7829],[68.4058,27.1297]],[[72.0327,29.3725],[71.7866,29.2381],[71.8164,29.2479],[72.0327,29.3725]]],[[[57.078,31.0444],[56.5147,31.793],[56.2962,32.8462],[56.6184,33.6198],[56.916,33.6469],[57.7407,33.2639],[59.8737,30.7926],[59.926,30.1967],[59.768,29.897],[59.2499,29.8181],[58.4326,30.0099],[57.078,31.0444]]],[[[37.4867,31.374],[36.9119,32.1065],[36.8579,32.5706],[37.0581,33.3826],[37.7454,33.8539],[40.7131,34.082],[42.6798,33.4538],[43.5256,32.4138],[43.3667,31.619],[42.6333,30.9387],[40.2401,30.4705],[38.4502,30.8927],[37.4867,31.374]]],[[[79.572,37.8798],[78.5296,38.3657],[78.2936,38.6545],[78.3283,38.9675],[78.5499,39.1799],[79.2968,39.3356],[80.4138,40.0882],[84.8739,40.5837],[87.0839,40.2725],[87.5471,39.8801],[87.6539,39.5765],[87.6403,39.3117],[87.3256,38.9473],[84.3866,37.6365],[83.9633,37.3121],[81.7068,37.3405],[79.572,37.8798]]],[[[111.1395,39.3323],[110.7128,38.6711],[110.7727,37.8215],[110.2329,37.2451],[109.6543,37.5477],[108.572,37.6696],[107.5396,37.5193],[105.4811,37.6673],[105.3178,37.8382],[105.1365,38.7911],[105.2566,39.2921],[104.8097,38.4802],[104.4567,38.1753],[103.0942,37.8371],[102.3749,38.1921],[100.9559,38.4802],[99.9247,39.3456],[98.84,39.7617],[95.9276,40.1352],[95.3638,40.3358],[94.693,40.9309],[94.4736,41.833],[94.593,42.1925],[95.3314,43.1179],[95.5055,44.6452],[96.2112,44.8569],[99.6951,44.4539],[102.2764,44.6979],[104.2852,45.33],[108.5291,45.4329],[109.1333,45.5998],[113.1992,47.673],[113.813,47.7858],[115.7192,47.7253],[117.5798,47.3444],[117.7211,46.9287],[117.5225,44.5087],[117.1919,43.0178],[116.841,42.5552],[116.4365,42.3886],[113.6953,42.3039],[113.0753,42.1469],[111.5476,41.1124],[110.6953,40.8581],[107.2769,41.3381],[106.8538,40.6473],[105.7044,40.1846],[105.4041,39.56],[105.9992,40.2899],[106.6875,40.4705],[106.9756,40.3587],[107.8025,40.9061],[110.7774,40.3426],[111.2529,39.9714],[111.1395,39.3323]]],[[[60.4754,36.8275],[57.7673,38.6326],[56.7434,39.0478],[56.089,39.7946],[55.8518,40.7614],[55.9861,41.4378],[56.2382,41.8383],[58.1674,43.4345],[60.5354,46.8773],[60.9246,47.2558],[62.7661,47.4917],[65.1408,46.3835],[67.4313,44.6597],[69.0208,43.049],[69.1149,42.2835],[68.6254,41.3515],[67.2168,39.62],[65.4893,37.8629],[64.1679,36.7573],[63.0941,36.2227],[62.1893,36.2545],[60.4754,36.8275]]],[[[73.8425,43.4589],[73.6212,43.2648],[72.219,43.0401],[69.3118,43.6752],[68.1641,44.3319],[67.4446,45.1921],[67.3988,45.6179],[67.7897,46.0485],[69.718,46.5859],[72.0247,46.0947],[72.7052,45.0504],[73.7478,44.2434],[73.9291,43.8236],[73.8425,43.4589]]]]}}]}